{"type":"FeatureCollection","features":[{"type":"Feature","properties":{"name":"Nestleton Hall","kind":"Community hall","address":"3967 Highway 7a","town":"Nestleton","phone":"905-986-5032"},"geometry":{"type":"Point","coordinates":[-78.79648,44.14038]}},{"type":"Feature","properties":{"name":"Goodwood Community Centre","kind":"Community hall","address":"268 Regional Highway 47","town":"Goodwood","phone":"905-852-6761"},"geometry":{"type":"Point","coordinates":[-79.20228,44.0349]}},{"type":"Feature","properties":{"name":"Uxbridge Public Library","kind":"Library","address":"9 Toronto St S","town":"Uxbridge","phone":"905-852-9747","hours":"Mon, Wed, Fri, Sat - 10am to 5pm\nTue & Thurs - 10am to 9pm\nSun - 1pm to 5pm","website":"www.uxlib.com"},"geometry":{"type":"Point","coordinates":[-79.12258,44.10809]}},{"type":"Feature","properties":{"name":"Latcham Community Centre","kind":"Community hall","address":"121 Queen St","town":"Port Perry","phone":"905-985-7982"},"geometry":{"type":"Point","coordinates":[-78.94182,44.10599]}},{"type":"Feature","properties":{"name":"Sandford Community Centre","kind":"Community hall","address":"433 Sandford Rd","town":"Sandford","phone":"905-852-6761"},"geometry":{"type":"Point","coordinates":[-79.20434,44.13606]}},{"type":"Feature","properties":{"name":"Cartwright Town Hall","kind":"Community hall","address":"13940 Old Scugog Rd","town":"Blackstock"},"geometry":{"type":"Point","coordinates":[-78.82017,44.10624]}},{"type":"Feature","properties":{"name":"Uxbridge Public Library - Zephyr Branch","kind":"Library","address":"13000 Durham Rd 39","town":"Zephyr","phone":"905-473-2375","hours":"Mon, Wed, Fri, Sun - Closed \nTues & Thurs 3pm to 8pm \nSat 10am to 3pm\nOpen Sundays between November and April","website":"www.uxlib.com"},"geometry":{"type":"Point","coordinates":[-79.26552,44.20063]}},{"type":"Feature","properties":{"name":"Uxbridge Historical Centre","kind":"Community hall","address":"7239 Concession 6","town":"Uxbridge","phone":"905-852-5854"},"geometry":{"type":"Point","coordinates":[-79.14589,44.1076]}},{"type":"Feature","properties":{"name":"Cannington Town Hall","kind":"Community hall","address":"38 Laidlaw St S","town":"Cannington","phone":"705-432-2139"},"geometry":{"type":"Point","coordinates":[-79.03793,44.3492]}},{"type":"Feature","properties":{"name":"Scugog Island Community Hall","kind":"Community hall","address":"2710 Demara Rd","town":"Port Perry","phone":"905-985-7281"},"geometry":{"type":"Point","coordinates":[-78.89915,44.15547]}},{"type":"Feature","properties":{"name":"Scout Hall","kind":"Community hall","address":"15585 Simcoe St","town":"Port Perry","phone":"905-985-3733"},"geometry":{"type":"Point","coordinates":[-78.94799,44.10615]}},{"type":"Feature","properties":{"name":"Prince Albert Hall","kind":"Community hall","address":"19 Jeffrey St","town":"Prince Albert","phone":"905-985-3358"},"geometry":{"type":"Point","coordinates":[-78.95316,44.08654]}},{"type":"Feature","properties":{"name":"Caesarea Community Hall","kind":"Community hall","address":"3554 Regional Rd 57","town":"Caesarea","phone":"905-986-4429"},"geometry":{"type":"Point","coordinates":[-78.8304,44.1553]}},{"type":"Feature","properties":{"name":"Elgin Park","kind":"Community hall","address":"Main St S","town":"Uxbridge","phone":"905-852-6761"},"geometry":{"type":"Point","coordinates":[-79.1189,44.10161]}},{"type":"Feature","properties":{"name":"Brock Township Public Library - Cannington Branch","kind":"Library","address":"38 Laidlaw Street S","town":"Cannington","phone":"705-432-2867","hours":"Sun & Mon - Closed\nTue & Thurs - 2pm to 7:30pm\nWed & Thurs - 10am to 3pm\nFri - 2pm to 7:30pm\nSat - 10am to 2pm ","website":"www.brocklibraries.ca"},"geometry":{"type":"Point","coordinates":[-79.03791,44.34917]}},{"type":"Feature","properties":{"name":"Beaverton Town Hall","kind":"Community hall","address":"397 Simcoe St","town":"Beaverton","phone":"705-426-2355"},"geometry":{"type":"Point","coordinates":[-79.15287,44.42911]}},{"type":"Feature","properties":{"name":"Uxbridge Music Hall","kind":"Community hall","address":"16 Main St S","town":"Uxbridge","phone":"905-852-6761"},"geometry":{"type":"Point","coordinates":[-79.12045,44.10866]}},{"type":"Feature","properties":{"name":"Town Hall 1873","kind":"Community hall","address":"302 Queen St","town":"Port Perry","phone":"905-985-9191"},"geometry":{"type":"Point","coordinates":[-78.94728,44.10328]}},{"type":"Feature","properties":{"name":"Manilla Hall","kind":"Community hall","address":"C16990 Simcoe St","town":"Manilla","phone":"705-357-3869"},"geometry":{"type":"Point","coordinates":[-78.98887,44.30695]}},{"type":"Feature","properties":{"name":"Scugog Memorial Public Library","kind":"Library","address":"231 Water St","town":"Port Perry","phone":"905-985-7686","hours":"Mon, Wed & Fri - 10am to 6pm\nTues & Thurs - 10am to 9pm \nSat - 10am to 5pm\nSun - 1pm to 5pm","website":"www.scugoglibrary.ca"},"geometry":{"type":"Point","coordinates":[-78.94236,44.10686]}},{"type":"Feature","properties":{"name":"Brock Township Public Library - Sunderland Branch","kind":"Library","address":"41 Albert St","town":"Sunderland","phone":"705-357-3109","hours":"Sun, Mon & Fri  - Closed\nTue to Thurs - 3pm to 8pm\nSat - 10am to 2pm ","website":"www.brocklibraries.ca"},"geometry":{"type":"Point","coordinates":[-79.0659,44.25975]}},{"type":"Feature","properties":{"name":"Greenbank Hall","kind":"Community hall","address":"19965 Highway 7 & 12","town":"Greenbank","phone":"905-985-2524"},"geometry":{"type":"Point","coordinates":[-79.01437,44.15155]}},{"type":"Feature","properties":{"name":"Siloam Community Centre","kind":"Community hall","address":"7040 Concession Rd 2","town":"Siloam","phone":"905-852-6761"},"geometry":{"type":"Point","coordinates":[-79.24151,44.08275]}},{"type":"Feature","properties":{"name":"Scott Zephyr Hall","kind":"Community hall","address":"310 Zephyr Rd","town":"Zephyr","phone":"905-473-3220"},"geometry":{"type":"Point","coordinates":[-79.26301,44.20186]}},{"type":"Feature","properties":{"name":"Sunderland Town Hall","kind":"Community hall","address":"120 River St","town":"Sunderland","phone":"705-432-2355"},"geometry":{"type":"Point","coordinates":[-79.06831,44.26269]}},{"type":"Feature","properties":{"name":"Uxpool Hall","kind":"Community hall","address":"1 Parkside Dr","town":"Uxbridge","phone":"905-852-7831"},"geometry":{"type":"Point","coordinates":[-79.11725,44.10726]}},{"type":"Feature","properties":{"name":"Wilfrid Hall","kind":"Community hall","address":"C20915 Brock Rd","town":"Wilfrid","phone":"705-437-7834"},"geometry":{"type":"Point","coordinates":[-79.1741,44.31975]}},{"type":"Feature","properties":{"name":"Utica Memory Hall","kind":"Community hall","address":"13990 Marsh Hill Rd","town":"Utica"},"geometry":{"type":"Point","coordinates":[-79.02614,44.06812]}},{"type":"Feature","properties":{"name":"Brock Township Public Library - Beaverton Branch","kind":"Library","address":"401 Simcoe St E","town":"Beaverton","phone":"705-426-9283","hours":"Sun & Mon - Closed\nTue & Thurs - 10am to 7:30pm\nWed - 2pm to 5pm\nFri - 10am to 4pm\nSat - 10am to 3pm ","website":"www.brocklibraries.ca"},"geometry":{"type":"Point","coordinates":[-79.15266,44.42906]}},{"type":"Feature","properties":{"name":"Seagrave Club House","kind":"Community hall","address":"53 Coryell St","town":"Seagrave","phone":" "},"geometry":{"type":"Point","coordinates":[-78.95499,44.20216]}}]}