{"type":"FeatureCollection","features":[{"type":"Feature","properties":{"name":"Joseph Gould YMCA Child Care Centre","kind":"Childcare","address":"144 Planks Lane","town":"UXBRIDGE","phone":"(905) 862-2750","hours":" 7:00:00AM -  6:00:00PM","website":"http://www.ymcagta.org"},"geometry":{"type":"Point","coordinates":[-79.11249,44.10879]}},{"type":"Feature","properties":{"name":"Kids' Campus Child Care, Cartwright","kind":"Childcare","address":"10 Alexander Street","town":"BLACKSTOCK","phone":"(905) 725-0123","hours":" 7:00:00AM -  6:00:00PM","website":"http://www.kidscampus.ca"},"geometry":{"type":"Point","coordinates":[-78.82184,44.11233]}},{"type":"Feature","properties":{"name":"Stonemoor School Age, Quaker Village","kind":"Childcare","address":"291 Brock Street West Box 664","town":"UXBRIDGE","phone":"(905) 862-2153","hours":" 6:30:00AM -  6:00:00PM","website":"http://www.uxbridge.com/stonemoor"},"geometry":{"type":"Point","coordinates":[-79.13469,44.107]}},{"type":"Feature","properties":{"name":"S.A. Cawker YMCA School-Age Program","kind":"Childcare","address":"16200 Old Simcoe Road","town":"PORT PERRY","phone":"(289) 927-3713","hours":" 7:00:00AM -  6:00:00PM","website":"http://www.ymcagta.org"},"geometry":{"type":"Point","coordinates":[-78.95724,44.11386]}},{"type":"Feature","properties":{"name":"Blackstock Co-Operative Nursery School","kind":"Childcare","address":"3440 Church Street P.O. Box 11","town":"BLACKSTOCK","phone":"(905) 986-4585","hours":" 9:00:00AM - 11:30:00AM"},"geometry":{"type":"Point","coordinates":[-78.82231,44.10624]}},{"type":"Feature","properties":{"name":"Stonemoor Day Care, Uxbridge","kind":"Childcare","address":"763 Davis Drive","town":"UXBRIDGE","phone":"(905) 852-3510","hours":" 6:30:00AM -  6:00:00PM","website":"http://www.uxbridge.com/stonemoor"},"geometry":{"type":"Point","coordinates":[-79.11493,44.13543]}},{"type":"Feature","properties":{"name":"R.H. Cornish YMCA Before and After School Program","kind":"Childcare","address":"494 Queen Street","town":"PORT PERRY","phone":"(905) 904-0432","hours":" 7:00:00AM -  6:00:00PM","website":"http://www.ymcagta.org"},"geometry":{"type":"Point","coordinates":[-78.95336,44.10033]}},{"type":"Feature","properties":{"name":"Stonemoor, McCaskill's Mills","kind":"Childcare","address":"85 Albert Street","town":"CANNINGTON","phone":"(705) 432-8800","hours":" 6:15:00AM -  6:00:00PM","website":"http://www.uxbridge.com/stonemoor"},"geometry":{"type":"Point","coordinates":[-79.04478,44.34505]}},{"type":"Feature","properties":{"name":"Where We Grow Early Learning Centre","kind":"Childcare","address":"399 Queen Street","town":"PORT PERRY","phone":"(905) 985-0800","hours":" 6:30:00AM -  6:00:00PM","website":"http://www.wherewegrow.com"},"geometry":{"type":"Point","coordinates":[-78.95053,44.10211]}},{"type":"Feature","properties":{"name":"The Children's House Montessori School","kind":"Childcare","address":"16150 Old Simcoe Road","town":"PORT PERRY","phone":"(905) 985-3431","hours":" 7:00:00AM -  6:00:00PM","website":"http://www.childrenshouse.ca"},"geometry":{"type":"Point","coordinates":[-78.95712,44.11267]}},{"type":"Feature","properties":{"name":"Stonemoor Nursery School, Cannington","kind":"Childcare","address":"91 Elliot Street","town":"CANNINGTON","phone":"(705) 340-8986","hours":" 9:30:00AM - 11:30:00AM","website":"http://www.uxbridge.com/stonemoor"},"geometry":{"type":"Point","coordinates":[-79.03327,44.34839]}},{"type":"Feature","properties":{"name":"Curiosity Child Care","kind":"Childcare","address":"186 Casimir Street, Lower Level","town":"PORT PERRY","phone":"(905) 985-5589","hours":" 6:00:00AM -  6:30:00PM","website":"http://www.curiositychilden.ca"},"geometry":{"type":"Point","coordinates":[-78.94244,44.10284]}},{"type":"Feature","properties":{"name":"P.R.Y.D.E., Quaker Village","kind":"Childcare","address":"295 Brock Street West","town":"UXBRIDGE","phone":"(647) 454-9223","hours":" 7:00:00AM -  6:00:00PM","website":"http://www.prydelearningcentres.ca"},"geometry":{"type":"Point","coordinates":[-79.13785,44.10604]}},{"type":"Feature","properties":{"name":"Stonemoor, Uxbridge Public","kind":"Childcare","address":"64 Victoria Drive","town":"UXBRIDGE","phone":"(905) 852-6537","hours":" 6:30:00AM -  6:00:00PM","website":"http://www.uxbridge.com/stonemoor"},"geometry":{"type":"Point","coordinates":[-79.12561,44.10583]}},{"type":"Feature","properties":{"name":"P.R.Y.D.E., St. Joseph, Uxbridge","kind":"Childcare","address":"25 Quaker Village Drive, PO Box 1570","town":"UXBRIDGE","phone":"(905) 852-9887","hours":" 7:00:00AM -  6:00:00PM","website":"http://www.prydelearningcentres.ca"},"geometry":{"type":"Point","coordinates":[-79.13782,44.10696]}},{"type":"Feature","properties":{"name":"EduKids Child Care, Uxbridge","kind":"Childcare","address":"141 Reach Street","town":"UXBRIDGE","phone":"(905) 862-2626","hours":" 6:30:00AM -  6:15:00PM","website":"http://www.edukids.ca"},"geometry":{"type":"Point","coordinates":[-79.11143,44.10536]}},{"type":"Feature","properties":{"name":"All About Kids, Goodwood","kind":"Childcare","address":"292 Highway # 47, Box 48","town":"GOODWOOD","phone":"(905) 642-0100","hours":" 7:00:00AM -  6:00:00PM","website":"http://www.allaboutkids.ca"},"geometry":{"type":"Point","coordinates":[-79.19813,44.03649]}},{"type":"Feature","properties":{"name":"Sunderland Early Learning & Child Care Centre","kind":"Childcare","address":"Sunderland Public School, 41 Albert Street","town":"SUNDERLAND","phone":"(705) 328-7171","hours":" 6:45:00AM -  6:00:00PM","website":"http://www.durham.ca"},"geometry":{"type":"Point","coordinates":[-79.0659,44.25975]}},{"type":"Feature","properties":{"name":"Good Shepherd YMCA Child Care Centre","kind":"Childcare","address":"1650 Reach Street","town":"PORT PERRY","phone":"(905) 985-7829","hours":" 7:00:00AM -  6:00:00PM","website":"http://www.ymcagta.org"},"geometry":{"type":"Point","coordinates":[-78.9602,44.1103]}},{"type":"Feature","properties":{"name":"Stonemoor School Age, Goodwood","kind":"Childcare","address":"4340 Front Street","town":"GOODWOOD","phone":"(647) 528-0044","hours":" 6:30:00AM -  6:00:00PM","website":"http://www.uxbridge.com/stonemoor"},"geometry":{"type":"Point","coordinates":[-79.19863,44.04029]}},{"type":"Feature","properties":{"name":"Stonemoor School Age, Scott Central","kind":"Childcare","address":"421 Sandford Road","town":"SANDFORD","phone":"(905) 852-5380","hours":" 6:30:00AM -  6:00:00PM","website":"http://www.uxbridge.com/stonemoor"},"geometry":{"type":"Point","coordinates":[-79.20636,44.13541]}},{"type":"Feature","properties":{"name":"Uxbridge Montessori School","kind":"Childcare","address":"167 Main Street North","town":"UXBRIDGE","phone":"(905) 852-6377","hours":" 7:00:00AM -  6:00:00PM","website":"http://www.uxbridgemontessori.com"},"geometry":{"type":"Point","coordinates":[-79.12268,44.11533]}},{"type":"Feature","properties":{"name":"Prince Albert YMCA School Age Program","kind":"Childcare","address":"13700 Old Simcoe Road","town":"PRINCE ALBERT","phone":"(905) 904-1186","hours":" 6:30:00AM -  6:00:00PM","website":"http://www.ymcagta.org"},"geometry":{"type":"Point","coordinates":[-78.95308,44.08017]}},{"type":"Feature","properties":{"name":"Stonemoor School Age, Greenbank","kind":"Childcare","address":"1325 Cragg Rd.","town":"GREENBANK","phone":"(905) 960-0597","hours":" 6:30:00AM -  6:00:00PM","website":"http://www.uxbridge.com/stonemoor"},"geometry":{"type":"Point","coordinates":[-79.00666,44.15447]}},{"type":"Feature","properties":{"name":"Helping Hands Daycare, Port Perry","kind":"Childcare","address":"15930 Old Simcoe Road Building 3","town":"PORT PERRY","phone":"(905) 985-9337","hours":" 6:15:00AM -  6:30:00PM","website":"http://www.helpinghandsdaycare.ca"},"geometry":{"type":"Point","coordinates":[-78.95681,44.11025]}},{"type":"Feature","properties":{"name":"Beaverton YMCA Child Care Centre","kind":"Childcare","address":"28775 Hwy 12","town":"BEAVERTON","phone":"(365) 885-5326","hours":" 7:00:00AM -  6:00:00PM","website":"http://www.ymcagta.org"},"geometry":{"type":"Point","coordinates":[-79.1259,44.43379]}},{"type":"Feature","properties":{"name":"Beaverton Holy Family YMCA","kind":"Childcare","address":"720 Simcoe Street P.O. Box 159","town":"BEAVERTON","phone":"(365) 885-5462","hours":" 7:00:00AM -  6:00:00PM","website":"http://www.ymcagta.org"},"geometry":{"type":"Point","coordinates":[-79.14125,44.42687]}}]}