{"type": "FeatureCollection", "features": [{"type": "Feature", "properties": {"name": "Regional Municipality of Durham"}, "geometry": {"type": "Polygon", "coordinates": [[[-79.32799, 44.22326], [-79.32798, 44.22323], [-79.31388, 44.18992], [-79.3134, 44.18879], [-79.31201, 44.18553], [-79.31198, 44.18548], [-79.30677, 44.17311], [-79.30635, 44.17213], [-79.30612, 44.1716], [-79.30604, 44.17141], [-79.30596, 44.17123], [-79.29836, 44.15385], [-79.29089, 44.13652], [-79.28345, 44.1188], [-79.27616, 44.10125], [-79.26516, 44.07647], [-79.25647, 44.05643], [-79.25625, 44.0557], [-79.25584, 44.05498], [-79.25296, 44.04836], [-79.25271, 44.04789], [-79.25232, 44.04747], [-79.25083, 44.04627], [-79.25051, 44.04592], [-79.25027, 44.04552], [-79.25013, 44.04508], [-79.24925, 44.04202], [-79.24898, 44.04086], [-79.24868, 44.03867], [-79.24849, 44.03782], [-79.24824, 44.03717], [-79.24219, 44.02343], [-79.23813, 44.01415], [-79.23781, 44.01344], [-79.23773, 44.01299], [-79.23788, 44.0123], [-79.23799, 44.01207], [-79.23632, 44.01126], [-79.23215, 44.00057], [-79.22964, 43.99471], [-79.22962, 43.99467], [-79.22702, 43.9885], [-79.22695, 43.98833], [-79.22648, 43.98729], [-79.22278, 43.97886], [-79.22259, 43.97843], [-79.22256, 43.97836], [-79.22191, 43.97689], [-79.22104, 43.97419], [-79.22004, 43.97092], [-79.21741, 43.96251], [-79.21617, 43.95891], [-79.21477, 43.95455], [-79.2142, 43.95291], [-79.20895, 43.9415], [-79.20659, 43.93642], [-79.20126, 43.92433], [-79.19835, 43.91773], [-79.1935, 43.90739], [-79.18967, 43.89916], [-79.1862, 43.89149], [-79.18604, 43.89116], [-79.18557, 43.89021], [-79.18496, 43.88899], [-79.18398, 43.88698], [-79.1835, 43.88595], [-79.18217, 43.88292], [-79.1778, 43.87292], [-79.17026, 43.85551], [-79.17021, 43.85544], [-79.1702, 43.8554], [-79.17017, 43.85532], [-79.1699, 43.85469], [-79.1697, 43.85422], [-79.16965, 43.85406], [-79.16881, 43.85229], [-79.16685, 43.84796], [-79.16615, 43.84658], [-79.1634, 43.84033], [-79.16092, 43.83484], [-79.1606, 43.83414], [-79.15957, 43.83181], [-79.15953, 43.83172], [-79.1563, 43.82419], [-79.15556, 43.82262], [-79.15205, 43.81456], [-79.15184, 43.8142], [-79.15148, 43.81408], [-79.15126, 43.81395], [-79.15113, 43.81386], [-79.15101, 43.8137], [-79.15094, 43.81361], [-79.15084, 43.81351], [-79.15071, 43.81342], [-79.15048, 43.81332], [-79.15002, 43.81302], [-79.14954, 43.81256], [-79.14941, 43.81245], [-79.14918, 43.81238], [-79.14901, 43.81236], [-79.1488, 43.81238], [-79.14846, 43.81238], [-79.14808, 43.81233], [-79.1479, 43.81222], [-79.14783, 43.81209], [-79.14781, 43.81206], [-79.14763, 43.81191], [-79.14725, 43.81172], [-79.14687, 43.81147], [-79.14646, 43.81124], [-79.14631, 43.8112], [-79.14619, 43.81121], [-79.14606, 43.81116], [-79.14597, 43.81109], [-79.14595, 43.81093], [-79.14598, 43.81065], [-79.14603, 43.81014], [-79.146, 43.81002], [-79.14592, 43.80998], [-79.1457, 43.80999], [-79.14494, 43.80998], [-79.14451, 43.80992], [-79.14416, 43.80985], [-79.14407, 43.80982], [-79.14377, 43.80973], [-79.14314, 43.80958], [-79.14262, 43.80942], [-79.14219, 43.80935], [-79.14162, 43.80916], [-79.14114, 43.80891], [-79.14101, 43.80886], [-79.14069, 43.80878], [-79.14053, 43.80873], [-79.14045, 43.80842], [-79.1404, 43.80836], [-79.14025, 43.80837], [-79.13996, 43.80838], [-79.13962, 43.80835], [-79.13936, 43.80835], [-79.13916, 43.80824], [-79.13893, 43.80807], [-79.1389, 43.80805], [-79.13879, 43.808], [-79.13867, 43.80798], [-79.13858, 43.80799], [-79.13848, 43.80795], [-79.13841, 43.80797], [-79.13834, 43.808], [-79.13827, 43.808], [-79.13822, 43.80793], [-79.13821, 43.80792], [-79.13818, 43.8078], [-79.13827, 43.80766], [-79.13821, 43.80756], [-79.13809, 43.80747], [-79.13799, 43.80741], [-79.13787, 43.80742], [-79.13773, 43.80757], [-79.13759, 43.8078], [-79.13751, 43.80791], [-79.13727, 43.80788], [-79.13706, 43.80774], [-79.1368, 43.80779], [-79.1366, 43.80789], [-79.13649, 43.80802], [-79.13642, 43.80811], [-79.13625, 43.80814], [-79.13608, 43.80816], [-79.13571, 43.80802], [-79.13543, 43.8079], [-79.13503, 43.80757], [-79.13482, 43.80739], [-79.13458, 43.8073], [-79.13433, 43.80701], [-79.13392, 43.80678], [-79.13375, 43.80648], [-79.13372, 43.80632], [-79.13371, 43.80626], [-79.13377, 43.80598], [-79.13403, 43.80549], [-79.13418, 43.80518], [-79.1343, 43.80456], [-79.13416, 43.80401], [-79.13362, 43.80326], [-79.13352, 43.80301], [-79.13361, 43.80284], [-79.13402, 43.80243], [-79.13455, 43.8018], [-79.13482, 43.80161], [-79.13523, 43.80132], [-79.1354, 43.80106], [-79.13541, 43.8009], [-79.13524, 43.80071], [-79.13499, 43.80072], [-79.13472, 43.80077], [-79.13313, 43.80125], [-79.13164, 43.80181], [-79.13122, 43.80186], [-79.13077, 43.80181], [-79.13024, 43.80166], [-79.12964, 43.80139], [-79.12825, 43.80058], [-79.12773, 43.80033], [-79.12704, 43.80014], [-79.12671, 43.80014], [-79.12636, 43.8002], [-79.12559, 43.8003], [-79.12526, 43.80024], [-79.12466, 43.79983], [-79.12418, 43.79905], [-79.12409, 43.79868], [-79.12417, 43.79825], [-79.12437, 43.79773], [-79.12431, 43.79756], [-79.12412, 43.79743], [-79.12353, 43.79721], [-79.12318, 43.79724], [-79.1225, 43.79742], [-79.1221, 43.79748], [-79.12189, 43.79746], [-79.12163, 43.79737], [-79.12142, 43.79727], [-79.12018, 43.79608], [-79.12011, 43.79589], [-79.12014, 43.79576], [-79.12034, 43.79555], [-79.1206, 43.79545], [-79.12095, 43.79538], [-79.12116, 43.79526], [-79.12122, 43.79509], [-79.12116, 43.7949], [-79.12099, 43.79475], [-79.12076, 43.79469], [-79.12043, 43.79472], [-79.11953, 43.79478], [-79.11898, 43.79468], [-79.11872, 43.79466], [-79.11796, 43.79441], [-79.11769, 43.79437], [-79.1175, 43.79437], [-79.11705, 43.79447], [-79.11669, 43.79467], [-79.11649, 43.7948], [-79.11608, 43.79493], [-79.11573, 43.79493], [-79.11551, 43.7949], [-79.11533, 43.79487], [-79.11529, 43.7948], [-79.11322, 43.79307], [-79.03518, 43.80583], [-78.96456, 43.81737], [-78.87466, 43.83207], [-78.78794, 43.84623], [-78.59518, 43.87477], [-78.43195, 43.89892], [-78.43675, 43.91196], [-78.43923, 43.91707], [-78.44116, 43.92157], [-78.44139, 43.9221], [-78.44141, 43.92213], [-78.44159, 43.92253], [-78.44195, 43.92338], [-78.44347, 43.92678], [-78.44459, 43.9294], [-78.44533, 43.93104], [-78.44631, 43.93317], [-78.44725, 43.93531], [-78.44857, 43.93815], [-78.44923, 43.93969], [-78.44948, 43.94018], [-78.45012, 43.94153], [-78.45031, 43.94189], [-78.45096, 43.94344], [-78.45214, 43.94597], [-78.45236, 43.94655], [-78.46599, 43.97797], [-78.46602, 43.97813], [-78.46735, 43.9813], [-78.46785, 43.98255], [-78.46802, 43.98293], [-78.4682, 43.98306], [-78.47521, 43.9994], [-78.4755, 44.00002], [-78.4766, 44.00238], [-78.48263, 44.01601], [-78.49065, 44.03889], [-78.49098, 44.03938], [-78.49117, 44.03977], [-78.49121, 44.03984], [-78.49126, 44.03995], [-78.4913, 44.04002], [-78.49144, 44.04047], [-78.49204, 44.04198], [-78.49445, 44.04779], [-78.4982, 44.05694], [-78.49909, 44.059], [-78.50001, 44.06111], [-78.5009, 44.06325], [-78.5047, 44.07245], [-78.50526, 44.07361], [-78.50595, 44.07504], [-78.5061, 44.07539], [-78.50695, 44.07739], [-78.50727, 44.0781], [-78.50851, 44.08093], [-78.51142, 44.0875], [-78.51144, 44.08754], [-78.51349, 44.09229], [-78.5142, 44.09393], [-78.51453, 44.0947], [-78.51566, 44.09736], [-78.51627, 44.09878], [-78.55237, 44.09046], [-78.57279, 44.08578], [-78.58541, 44.08288], [-78.58681, 44.08255], [-78.62508, 44.07375], [-78.62971, 44.07279], [-78.67451, 44.06269], [-78.67872, 44.06171], [-78.68837, 44.05938], [-78.69264, 44.05836], [-78.69577, 44.06511], [-78.6989, 44.07159], [-78.70321, 44.08044], [-78.70432, 44.0828], [-78.70631, 44.08704], [-78.70746, 44.08949], [-78.71015, 44.09538], [-78.71452, 44.10485], [-78.71534, 44.10665], [-78.7179, 44.1122], [-78.72014, 44.11705], [-78.72406, 44.12545], [-78.72582, 44.12913], [-78.72706, 44.13178], [-78.73519, 44.14998], [-78.7425, 44.16588], [-78.74341, 44.16794], [-78.74633, 44.17427], [-78.74906, 44.1803], [-78.75168, 44.18645], [-78.75365, 44.19058], [-78.76453, 44.21493], [-78.76537, 44.21686], [-78.76564, 44.21747], [-78.76665, 44.2198], [-78.7676, 44.22235], [-78.77155, 44.21952], [-78.78271, 44.21233], [-78.85034, 44.1605], [-78.84811, 44.2063], [-78.85738, 44.21749], [-78.87403, 44.2218], [-78.90527, 44.20101], [-78.92338, 44.15835], [-78.93395, 44.18038], [-78.93501, 44.18276], [-78.93568, 44.18427], [-78.93679, 44.18684], [-78.93683, 44.18702], [-78.93676, 44.1871], [-78.9372, 44.18814], [-78.93737, 44.18873], [-78.93799, 44.19006], [-78.939, 44.19231], [-78.94199, 44.1986], [-78.94244, 44.19961], [-78.94468, 44.20421], [-78.94609, 44.20704], [-78.9477, 44.21045], [-78.94869, 44.21262], [-78.95232, 44.22071], [-78.95389, 44.22428], [-78.95675, 44.23107], [-78.95748, 44.23277], [-78.95892, 44.23606], [-78.96273, 44.24537], [-78.96402, 44.24851], [-78.96784, 44.25786], [-78.96895, 44.26065], [-78.97263, 44.27023], [-78.97373, 44.27316], [-78.97772, 44.28258], [-78.97876, 44.28504], [-78.98253, 44.29364], [-78.98333, 44.29532], [-78.984, 44.2969], [-78.98504, 44.29923], [-78.98742, 44.30473], [-78.98852, 44.30725], [-78.98906, 44.30843], [-78.98948, 44.30946], [-78.99403, 44.31958], [-78.99428, 44.32009], [-78.99949, 44.33144], [-78.99966, 44.33179], [-79.00344, 44.34031], [-79.00477, 44.3433], [-79.00524, 44.34435], [-79.0102, 44.35529], [-79.01076, 44.35642], [-79.01099, 44.35695], [-79.01528, 44.36667], [-79.01614, 44.36847], [-79.01719, 44.37069], [-79.02065, 44.378], [-79.02204, 44.38093], [-79.02582, 44.38895], [-79.02602, 44.38941], [-79.02772, 44.39321], [-79.03312, 44.40539], [-79.03773, 44.41582], [-79.0395, 44.41982], [-79.04385, 44.42963], [-79.04917, 44.44145], [-79.05114, 44.44618], [-79.05434, 44.45343], [-79.0552, 44.45534], [-79.05528, 44.45552], [-79.05872, 44.46328], [-79.05955, 44.46516], [-79.06118, 44.46887], [-79.06835, 44.48491], [-79.0698, 44.48811], [-79.07014, 44.48886], [-79.07294, 44.49525], [-79.07503, 44.50006], [-79.07552, 44.50118], [-79.07713, 44.5048], [-79.08094, 44.51367], [-79.08139, 44.51476], [-79.08141, 44.51482], [-79.08174, 44.51563], [-79.08206, 44.51629], [-79.08209, 44.51629], [-79.08329, 44.51625], [-79.0884, 44.51659], [-79.08941, 44.51665], [-79.09054, 44.51668], [-79.09133, 44.51668], [-79.09221, 44.51672], [-79.09311, 44.51648], [-79.09582, 44.51513], [-79.09685, 44.5136], [-79.1043, 44.51029], [-79.10564, 44.50968], [-79.10794, 44.50934], [-79.10963, 44.5091], [-79.11224, 44.50939], [-79.11656, 44.50779], [-79.1179, 44.50727], [-79.11928, 44.50749], [-79.12043, 44.50753], [-79.12089, 44.50747], [-79.12124, 44.50734], [-79.12151, 44.5073], [-79.12177, 44.50713], [-79.12179, 44.50675], [-79.12158, 44.5065], [-79.12105, 44.50627], [-79.12101, 44.50616], [-79.12115, 44.50611], [-79.12216, 44.50617], [-79.12322, 44.50584], [-79.12405, 44.50553], [-79.12466, 44.50522], [-79.1255, 44.50505], [-79.12589, 44.50509], [-79.126, 44.50515], [-79.12607, 44.50531], [-79.12597, 44.50566], [-79.12576, 44.50598], [-79.12576, 44.50682], [-79.12593, 44.50702], [-79.12622, 44.50721], [-79.12692, 44.50721], [-79.12761, 44.50706], [-79.1283, 44.50709], [-79.12898, 44.50737], [-79.12923, 44.50777], [-79.13011, 44.5084], [-79.13091, 44.50885], [-79.13135, 44.50889], [-79.13159, 44.50912], [-79.13168, 44.5094], [-79.13204, 44.50959], [-79.13206, 44.50978], [-79.13188, 44.50983], [-79.13117, 44.50982], [-79.13119, 44.51018], [-79.13138, 44.51042], [-79.13183, 44.5107], [-79.13232, 44.51091], [-79.13313, 44.51085], [-79.13368, 44.51086], [-79.13395, 44.51109], [-79.13418, 44.5111], [-79.13439, 44.51132], [-79.13475, 44.51132], [-79.13495, 44.5112], [-79.13514, 44.51085], [-79.13534, 44.51076], [-79.13562, 44.51083], [-79.13611, 44.51156], [-79.13621, 44.51187], [-79.13598, 44.51212], [-79.13561, 44.51218], [-79.13549, 44.51238], [-79.13554, 44.51252], [-79.13578, 44.51268], [-79.13612, 44.51265], [-79.13766, 44.51203], [-79.13815, 44.51202], [-79.13865, 44.51232], [-79.13872, 44.51257], [-79.13828, 44.51277], [-79.13788, 44.51285], [-79.13776, 44.51305], [-79.13783, 44.51314], [-79.13829, 44.51312], [-79.13951, 44.51274], [-79.13983, 44.51276], [-79.1401, 44.51295], [-79.14008, 44.51322], [-79.13961, 44.51372], [-79.13955, 44.51399], [-79.13984, 44.51421], [-79.14041, 44.51419], [-79.1414, 44.51373], [-79.14199, 44.51324], [-79.14206, 44.51304], [-79.14202, 44.51283], [-79.14155, 44.51241], [-79.14164, 44.51218], [-79.14182, 44.51205], [-79.14218, 44.51207], [-79.14307, 44.51258], [-79.14356, 44.51265], [-79.14416, 44.51208], [-79.14439, 44.51212], [-79.14446, 44.51225], [-79.14451, 44.51232], [-79.14498, 44.5124], [-79.14524, 44.51201], [-79.14534, 44.51117], [-79.14514, 44.51058], [-79.14472, 44.50979], [-79.1444, 44.50942], [-79.14416, 44.50922], [-79.14418, 44.50912], [-79.14518, 44.50861], [-79.14598, 44.50796], [-79.1464, 44.50752], [-79.14649, 44.5069], [-79.14677, 44.50667], [-79.14728, 44.50641], [-79.14736, 44.50637], [-79.14751, 44.50579], [-79.14751, 44.50528], [-79.14817, 44.50482], [-79.14811, 44.50423], [-79.14795, 44.50383], [-79.14793, 44.50299], [-79.14787, 44.50221], [-79.14799, 44.50185], [-79.14819, 44.50162], [-79.14928, 44.50117], [-79.14936, 44.5011], [-79.14929, 44.50092], [-79.14865, 44.50077], [-79.14818, 44.50077], [-79.14814, 44.50059], [-79.14844, 44.50042], [-79.14939, 44.50029], [-79.14988, 44.50016], [-79.15036, 44.50013], [-79.151, 44.50005], [-79.1515, 44.50001], [-79.15192, 44.49996], [-79.15203, 44.49985], [-79.15218, 44.49954], [-79.15219, 44.49912], [-79.15205, 44.49883], [-79.15192, 44.49854], [-79.15183, 44.49831], [-79.15189, 44.49817], [-79.15216, 44.49812], [-79.15269, 44.49819], [-79.15326, 44.4983], [-79.15378, 44.49837], [-79.15431, 44.49836], [-79.15449, 44.49826], [-79.15471, 44.49804], [-79.15472, 44.49788], [-79.15466, 44.49757], [-79.1544, 44.4971], [-79.15409, 44.49689], [-79.15378, 44.49665], [-79.15377, 44.49641], [-79.15389, 44.49619], [-79.15416, 44.49594], [-79.15468, 44.49569], [-79.15498, 44.49552], [-79.15511, 44.49538], [-79.15501, 44.49517], [-79.15475, 44.49498], [-79.15415, 44.49486], [-79.15378, 44.49467], [-79.15377, 44.49448], [-79.15387, 44.49427], [-79.15416, 44.49391], [-79.15443, 44.49356], [-79.15468, 44.4934], [-79.15499, 44.49334], [-79.15538, 44.49329], [-79.15554, 44.49312], [-79.1555, 44.49288], [-79.15535, 44.49277], [-79.15465, 44.49256], [-79.15404, 44.49261], [-79.15354, 44.49266], [-79.15318, 44.49261], [-79.15308, 44.49237], [-79.15315, 44.49219], [-79.1534, 44.49201], [-79.15417, 44.49175], [-79.15537, 44.49125], [-79.15561, 44.49113], [-79.15557, 44.49088], [-79.15511, 44.49051], [-79.15449, 44.49031], [-79.1541, 44.49011], [-79.15384, 44.48986], [-79.15385, 44.48968], [-79.15396, 44.48955], [-79.1548, 44.48898], [-79.15513, 44.48871], [-79.15525, 44.48855], [-79.15535, 44.48835], [-79.15548, 44.48824], [-79.15563, 44.48823], [-79.15605, 44.48829], [-79.15681, 44.4884], [-79.15732, 44.4885], [-79.15775, 44.48859], [-79.15805, 44.4886], [-79.1582, 44.48845], [-79.15827, 44.48815], [-79.15823, 44.48796], [-79.15798, 44.48778], [-79.15774, 44.48763], [-79.15773, 44.48751], [-79.15785, 44.48732], [-79.15826, 44.48701], [-79.1587, 44.48684], [-79.15896, 44.48681], [-79.1595, 44.48687], [-79.15998, 44.48688], [-79.16013, 44.48677], [-79.16008, 44.48661], [-79.1598, 44.48634], [-79.15955, 44.48594], [-79.15957, 44.48569], [-79.15976, 44.48555], [-79.16008, 44.48549], [-79.16025, 44.48539], [-79.16014, 44.48519], [-79.15958, 44.485], [-79.15873, 44.48483], [-79.15839, 44.48474], [-79.15826, 44.48459], [-79.15843, 44.48448], [-79.15869, 44.48435], [-79.15866, 44.48421], [-79.15852, 44.48406], [-79.15802, 44.48383], [-79.15784, 44.4837], [-79.15784, 44.48345], [-79.15798, 44.48329], [-79.15816, 44.48322], [-79.15838, 44.48314], [-79.15845, 44.48301], [-79.15833, 44.48284], [-79.15791, 44.48253], [-79.15749, 44.48231], [-79.15699, 44.48225], [-79.15665, 44.48218], [-79.15647, 44.48206], [-79.15658, 44.48186], [-79.15691, 44.48164], [-79.15724, 44.48146], [-79.15756, 44.48135], [-79.1578, 44.48115], [-79.15812, 44.4809], [-79.15865, 44.4807], [-79.15903, 44.48053], [-79.15957, 44.4804], [-79.15877, 44.47982], [-79.15852, 44.47966], [-79.15782, 44.4793], [-79.1577, 44.47908], [-79.15785, 44.47871], [-79.15795, 44.47853], [-79.158, 44.47827], [-79.15783, 44.47818], [-79.15719, 44.47808], [-79.15679, 44.47797], [-79.15641, 44.47773], [-79.1564, 44.47762], [-79.15637, 44.4774], [-79.15646, 44.47709], [-79.1565, 44.47674], [-79.15667, 44.47648], [-79.15709, 44.47628], [-79.15784, 44.47601], [-79.15831, 44.47585], [-79.15859, 44.4757], [-79.15885, 44.47555], [-79.15939, 44.47512], [-79.16022, 44.47473], [-79.16083, 44.47437], [-79.16098, 44.47411], [-79.16092, 44.47357], [-79.16082, 44.47316], [-79.16091, 44.47244], [-79.16119, 44.47191], [-79.16193, 44.47177], [-79.16241, 44.47182], [-79.16286, 44.47181], [-79.16318, 44.47169], [-79.16382, 44.47102], [-79.16423, 44.47015], [-79.16513, 44.46955], [-79.17079, 44.46919], [-79.17191, 44.46912], [-79.19761, 44.46659], [-79.2715, 44.50486], [-79.26723, 44.45186], [-79.19627, 44.35361], [-79.19507, 44.35102], [-79.18066, 44.31878], [-79.15613, 44.26317], [-79.15614, 44.26308], [-79.16903, 44.26006], [-79.18337, 44.25668], [-79.18361, 44.25662], [-79.1968, 44.25352], [-79.19823, 44.25319], [-79.2, 44.25281], [-79.2135, 44.24967], [-79.2469, 44.24194], [-79.2666, 44.23736], [-79.2772, 44.23491], [-79.27957, 44.23434], [-79.28791, 44.23246], [-79.28954, 44.23208], [-79.32799, 44.22326]]]}}]}