{"type":"FeatureCollection","features":[{"type":"Feature","properties":{"name":"Community Care Durham: COPE Mental Health Program","kind":"Community health service","address":"1 Cameron St East","town":"Cannington","phone":"705-432-3044","website":"www.communitycaredurham.on.ca/copeservices.html"},"geometry":{"type":"Point","coordinates":[-79.03832,44.3501]}},{"type":"Feature","properties":{"name":"Community Care Durham: COPE Mental Health Program","kind":"Community health service","address":"16100 Old Simcoe Road","town":"Port Perry","phone":"905-985-8461 ext 225","website":"www.communitycaredurham.on.ca/copeservices.html"},"geometry":{"type":"Point","coordinates":[-78.95718,44.11208]}},{"type":"Feature","properties":{"name":"Markham Stouffville Hospital Uxbridge Site","kind":"Hospital","address":"4 Campbell Dr, Box 5003","town":"Uxbridge","phone":"905-852-9771"},"geometry":{"type":"Point","coordinates":[-79.12743,44.10292]}},{"type":"Feature","properties":{"name":"Brock Community Health Centre","kind":"Community health service","address":"64 Cameron St East","town":"Cannington","phone":"705-432-3388","website":"www.brockchc.ca/primary-health-care"},"geometry":{"type":"Point","coordinates":[-79.03599,44.351]}},{"type":"Feature","properties":{"name":"Port Perry Imaging","kind":"Clinic / medical centre","address":"462 Paxton St","town":"Port Perry","phone":"905-985-9727"},"geometry":{"type":"Point","coordinates":[-78.95389,44.10414]}},{"type":"Feature","properties":{"name":"Brock Community Health Centre","kind":"Clinic / medical centre","address":"64 Cameron Street East","town":"Cannington"},"geometry":{"type":"Point","coordinates":[-79.03603,44.3511]}},{"type":"Feature","properties":{"name":"Community Care Durham: COPE Mental Health Program","kind":"Community health service","address":"75 Marietta St, Unit 1","town":"Uxbridge","phone":"905-852-7445 ext 24","website":"www.communitycaredurham.on.ca/copeservices.html"},"geometry":{"type":"Point","coordinates":[-79.1175,44.10745]}},{"type":"Feature","properties":{"name":"New Awakenings Wellness Centre","kind":"Community health service","address":"10420 Russell Rd","town":"Port Perry","phone":"905-985-1039","website":"www.newawakenings.ca"},"geometry":{"type":"Point","coordinates":[-78.87535,44.04796]}},{"type":"Feature","properties":{"name":"Grandview Children's Centre","kind":"Clinic / medical centre","address":"451 Paxton St","town":"Port Perry","phone":"905-985-7321 x5568"},"geometry":{"type":"Point","coordinates":[-78.95486,44.10518]}},{"type":"Feature","properties":{"name":"Lakeridge Health Pinewood, Port Perry","kind":"Clinic / medical centre","address":"180 Mary St","town":"Port Perry","phone":"905-985-4721"},"geometry":{"type":"Point","coordinates":[-78.94263,44.10385]}},{"type":"Feature","properties":{"name":"Lakerige Health Port Perry","kind":"Community health service","address":"451 Paxton St ","town":"Port Perry","phone":"905-985-7321","website":"www.lakeridgehealth.on.ca/en/patientsandvisitors/gettingtous.asp"},"geometry":{"type":"Point","coordinates":[-78.95461,44.10531]}},{"type":"Feature","properties":{"name":"Markham Stouffville Hospital Uxbridge Site","kind":"Community health service","address":"4 Campbell Drive","town":"Uxbridge","phone":"905-852-9771","website":"www.msh.on.ca"},"geometry":{"type":"Point","coordinates":[-79.12804,44.10278]}},{"type":"Feature","properties":{"name":"Toronto Street Medical Centre","kind":"Clinic / medical centre","address":"29 Toronto St S","town":"Uxbridge","phone":"905-852-6101"},"geometry":{"type":"Point","coordinates":[-79.12248,44.10767]}},{"type":"Feature","properties":{"name":"Lakeridge Health Port Perry","kind":"Hospital","address":"451 Paxton St, Box 960","town":"Port Perry","phone":"905-985-7321"},"geometry":{"type":"Point","coordinates":[-78.95428,44.10536]}},{"type":"Feature","properties":{"name":"Beaverton Thorah Health Centre","kind":"Clinic / medical centre","address":"468 Main Street East","town":"Beaverton"},"geometry":{"type":"Point","coordinates":[-79.14872,44.43352]}},{"type":"Feature","properties":{"name":"Catholic Family Services of Durham","kind":"Community health service","address":"1710 Scugog Street","town":"Port Perry","phone":"905-985-4221","website":"www.cfsdurham.com/english/Contact_us.html"},"geometry":{"type":"Point","coordinates":[-78.95185,44.09834]}},{"type":"Feature","properties":{"name":"Sunderland Medical Centre","kind":"Clinic / medical centre","address":"26 Church Street","town":"Sunderland"},"geometry":{"type":"Point","coordinates":[-79.06742,44.26064]}},{"type":"Feature","properties":{"name":"Mental Health and Pinewood Centre of Lakeridge Health","kind":"Community health service","address":"180 Mary St","town":"Port Perry","phone":"905-985-4721","website":"www.lakeridgehealth.on.ca/en/ourservices/pinewood-addiction-services.asp"},"geometry":{"type":"Point","coordinates":[-78.94272,44.10391]}},{"type":"Feature","properties":{"name":"Beaverton RDPS","kind":"Paramedic station","address":"343 Bay St","town":"Brock"},"geometry":{"type":"Point","coordinates":[-79.1553,44.42847]}},{"type":"Feature","properties":{"name":"Port Perry RDPS","kind":"Paramedic station","address":"1775 Reach St","town":"Port Perry"},"geometry":{"type":"Point","coordinates":[-78.9528,44.11246]}},{"type":"Feature","properties":{"name":"Sunderland RDPS","kind":"Paramedic station","address":"S1050 Regional Rd 10","town":"Sunderland"},"geometry":{"type":"Point","coordinates":[-79.07373,44.26092]}},{"type":"Feature","properties":{"name":"Uxbridge RDPS","kind":"Paramedic station","address":"4 Campbell Dr","town":"Uxbridge"},"geometry":{"type":"Point","coordinates":[-79.12865,44.10189]}}]}