{"type":"FeatureCollection","features":[{"type":"Feature","properties":{"name":"Maple Glen Manor","kind":"Affordable housing","address":"36 Church St, Sunderland","phone":"905-436-6610","hours":"53 units","website":"https://www.durham.ca/en/living-here/affordable-housing.aspx?_mid_=24294"},"geometry":{"type":"Point","coordinates":[-79.06751,44.26041]}},{"type":"Feature","properties":{"name":"Kellett Manor","kind":"Affordable housing","address":"327 Kellett St. Port Perry","phone":"905-434-5015","hours":"30 units","website":"https://www.durham.ca/en/living-here/affordable-housing.aspx?_mid_=24294"},"geometry":{"type":"Point","coordinates":[-78.95108,44.11034]}},{"type":"Feature","properties":{"name":"Gillespie Gardens","kind":"Affordable housing","address":"75 Nine Mile Rd, Beaverton","phone":"905-436-6610","hours":"48 units","website":"https://www.durham.ca/en/living-here/affordable-housing.aspx?_mid_=24294"},"geometry":{"type":"Point","coordinates":[-79.16427,44.42692]}},{"type":"Feature","properties":{"name":"Brookside Apartments","kind":"Affordable housing","address":"20 Perry St","phone":"905-434-5015","hours":"51 units","website":"https://www.durham.ca/en/living-here/affordable-housing.aspx?_mid_=24294"},"geometry":{"type":"Point","coordinates":[-79.12876,44.10328]}},{"type":"Feature","properties":{"name":"Wayside Apartments","kind":"Affordable housing","address":"342 Main St, Beaverton","phone":"905-434-5016","hours":"32 units","website":"https://www.durham.ca/en/living-here/affordable-housing.aspx?_mid_=24294"},"geometry":{"type":"Point","coordinates":[-79.15376,44.43148]}},{"type":"Feature","properties":{"name":"Trinity Manor","kind":"Affordable housing","address":"10 First Av","phone":"905-633-7066","hours":"40 units"},"geometry":{"type":"Point","coordinates":[-79.11959,44.10994]}},{"type":"Feature","properties":{"name":"Old School House Apartments","kind":"Affordable housing","address":"28 Queen St, Cannington","phone":"905-436-6610","hours":"16 units","website":"https://www.durham.ca/en/living-here/affordable-housing.aspx?_mid_=24294"},"geometry":{"type":"Point","coordinates":[-79.04199,44.34856]}},{"type":"Feature","properties":{"name":"Spruce Lawn Apartments","kind":"Affordable housing","address":"385 Rosa St, Port Perry","phone":"905-434-5015","hours":"38 units","website":"https://www.durham.ca/en/living-here/affordable-housing.aspx?_mid_=24294"},"geometry":{"type":"Point","coordinates":[-78.95367,44.10921]}},{"type":"Feature","properties":{"name":"Borelia Co-Op","kind":"Affordable housing","address":"10 Borelia Cr, Port Perry","phone":"905-985-0423","hours":"70 units","website":"https://www.durham.ca/en/living-here/affordable-housing.aspx?_mid_=24294"},"geometry":{"type":"Point","coordinates":[-78.93798,44.10024]}},{"type":"Feature","properties":{"name":"Spruce Haven","kind":"Affordable housing","address":"103 Cameron St W, Cannington","phone":"905-434-5015","hours":"26 units","website":"https://www.durham.ca/en/living-here/affordable-housing.aspx?_mid_=24294"},"geometry":{"type":"Point","coordinates":[-79.04351,44.34928]}},{"type":"Feature","properties":{"name":"Immaculate Conception/J.D. Cochrance Court","kind":"Affordable housing","address":"61 Ash St, Port Perry","phone":"905-985-4322","hours":"38 units","website":"https://www.durham.ca/en/living-here/affordable-housing.aspx?_mid_=24294"},"geometry":{"type":"Point","coordinates":[-78.95076,44.09681]}},{"type":"Feature","properties":{"name":"Reach Gardens","kind":"Affordable housing","address":"57 Enzo Cr","phone":"905-436-6610","hours":"44 units","website":"https://www.durham.ca/en/living-here/affordable-housing.aspx?_mid_=24294"},"geometry":{"type":"Point","coordinates":[-79.10652,44.10368]}},{"type":"Feature","properties":{"name":"North House","kind":"Affordable housing","address":"2 Elgin Park Drive, Unit B","phone":"289-640-1929","website":"www.northhouse.ca"},"geometry":{"type":"Point","coordinates":[-79.12771,44.09606]}}]}