{"type":"FeatureCollection","features":[{"type":"Feature","properties":{"name":"Scugog Soccer Fields","kind":"Park & recreation","address":"16700 Old Simcoe Rd","town":"Port Perry","phone":"905-985-7553"},"geometry":{"type":"Point","coordinates":[-78.95906,44.12033]}},{"type":"Feature","properties":{"name":"YMCA in Port Perry","kind":"Park & recreation","address":"158 Casimir St","town":"Port Perry","phone":"905-985-2824"},"geometry":{"type":"Point","coordinates":[-78.94147,44.10316]}},{"type":"Feature","properties":{"name":"Rick MacLeish Memorial Community Center","kind":"Park & recreation","address":"91 Elliot St","town":"Cannington","phone":"705-432-2582"},"geometry":{"type":"Point","coordinates":[-79.03331,44.34832]}},{"type":"Feature","properties":{"name":"Beaverton King Street Park","kind":"Park & recreation","address":"King St W","town":"Beaverton"},"geometry":{"type":"Point","coordinates":[-79.15541,44.43244]}},{"type":"Feature","properties":{"name":"Nestleton Hall & Cartwright Fields","kind":"Park & recreation","address":"3967 Highway 7A","town":"Nestleton","phone":"905-986-5032"},"geometry":{"type":"Point","coordinates":[-78.79647,44.14042]}},{"type":"Feature","properties":{"name":"Uxbridge Arena and Community Centre","kind":"Park & recreation","address":"291 Brock St W","town":"Uxbridge","phone":"905-852-3081"},"geometry":{"type":"Point","coordinates":[-79.13474,44.10699]}},{"type":"Feature","properties":{"name":"Seagrave Club House","kind":"Park & recreation","address":"53 Coryell St","town":"Seagrave"},"geometry":{"type":"Point","coordinates":[-78.95487,44.20228]}},{"type":"Feature","properties":{"name":"Birdseye Aquatic Facility (Outdoor)","kind":"Park & recreation","address":"231 Water St","town":"Port Perry","phone":"905-982-0830"},"geometry":{"type":"Point","coordinates":[-78.94231,44.10744]}},{"type":"Feature","properties":{"name":"Uxpool","kind":"Park & recreation","address":"1 Parkside Dr","town":"Uxbridge","phone":"905-852-7831"},"geometry":{"type":"Point","coordinates":[-79.11616,44.10682]}},{"type":"Feature","properties":{"name":"Uxbridge Seniors Centre","kind":"Park & recreation","address":"75 Marietta St","town":"Uxbridge","phone":"905-852-7401"},"geometry":{"type":"Point","coordinates":[-79.11738,44.10736]}},{"type":"Feature","properties":{"name":"Joe Fowler Memorial Park","kind":"Park & recreation","address":"57 Water St","town":"Port Perry"},"geometry":{"type":"Point","coordinates":[-78.94027,44.10348]}},{"type":"Feature","properties":{"name":"Port Perry Curling Club","kind":"Park & recreation","address":"483 Bay St","town":"Port Perry","phone":"905-985-7972"},"geometry":{"type":"Point","coordinates":[-78.95624,44.10768]}},{"type":"Feature","properties":{"name":"Brock Soccer Fields","kind":"Park & recreation","address":"B23955 Thorah Park Bv","town":"Port Bolster","phone":"705-426-4158"},"geometry":{"type":"Point","coordinates":[-79.19391,44.35522]}},{"type":"Feature","properties":{"name":"Scugog Community Recreation Centre","kind":"Park & recreation","address":"1655 Reach St","town":"Port Perry","phone":"905-985-8698"},"geometry":{"type":"Point","coordinates":[-78.96013,44.11153]}},{"type":"Feature","properties":{"name":"Beaverton Mill Gateway and Centennial Park","kind":"Park & recreation","address":"Simcoe St","town":"Beaverton"},"geometry":{"type":"Point","coordinates":[-79.1561,44.4303]}},{"type":"Feature","properties":{"name":"Blackstock Recreation Complex","kind":"Park & recreation","address":"3440 Church St","town":"Blackstock","phone":"905-985-8698"},"geometry":{"type":"Point","coordinates":[-78.82152,44.10636]}},{"type":"Feature","properties":{"name":"Cannington MacLeod Park","kind":"Park & recreation","address":"34 Peace St","town":"Cannington","phone":"705-432-8600"},"geometry":{"type":"Point","coordinates":[-79.03472,44.34971]}},{"type":"Feature","properties":{"name":"Sunderland Memorial Arena","kind":"Park & recreation","address":"20 Park St","town":"Sunderland","phone":"705-357-3338"},"geometry":{"type":"Point","coordinates":[-79.06869,44.26436]}},{"type":"Feature","properties":{"name":"Beaverton / Thorah Community Centre","kind":"Park & recreation","address":"176 Main St","town":"Beaverton","phone":"705-426-9838"},"geometry":{"type":"Point","coordinates":[-79.16135,44.43009]}},{"type":"Feature","properties":{"name":"Brock Rugby Corral & Clubhouse","kind":"Park & recreation","address":"S1205 Regional Rd 13","town":"Blackwater"},"geometry":{"type":"Point","coordinates":[-79.04752,44.23105]}}]}