{"type":"FeatureCollection","features":[{"type":"Feature","properties":{"name":"Holy Family Catholic School","kind":"Catholic elementary school","address":"720 Simcoe St, PO Box 830","town":"Beaverton","phone":"705-426-2961"},"geometry":{"type":"Point","coordinates":[-79.14151,44.42719]}},{"type":"Feature","properties":{"name":"Uxbridge Montessori School","kind":"Private school","address":"167 Main St N","town":"Uxbridge","phone":"905-852-6377"},"geometry":{"type":"Point","coordinates":[-79.12255,44.11518]}},{"type":"Feature","properties":{"name":"The Children's House Montessori School","kind":"Private school","address":"16150 Old Simcoe Rd","town":"Port Perry","phone":"905-985-3431"},"geometry":{"type":"Point","coordinates":[-78.9577,44.11247]}},{"type":"Feature","properties":{"name":"Uxbridge Secondary School","kind":"Public secondary school","address":"127 Planks Ln","town":"Uxbridge","phone":"905-852-3391"},"geometry":{"type":"Point","coordinates":[-79.11388,44.10949]}},{"type":"Feature","properties":{"name":"Goodwood Public School","kind":"Public elementary school","address":"4340 Front St","town":"Goodwood","phone":"905-640-3092"},"geometry":{"type":"Point","coordinates":[-79.19814,44.0401]}},{"type":"Feature","properties":{"name":"R H Cornish Public School","kind":"Public elementary school","address":"494 Queen St","town":"Port Perry","phone":"905-985-4468"},"geometry":{"type":"Point","coordinates":[-78.95304,44.10021]}},{"type":"Feature","properties":{"name":"Scott Central Public School","kind":"Public elementary school","address":"421 Regional Rd 11","town":"Sandford","phone":"905-852-9751"},"geometry":{"type":"Point","coordinates":[-79.20624,44.1356]}},{"type":"Feature","properties":{"name":"Uxbridge Public School","kind":"Public elementary school","address":"64 Victoria Dr","town":"Uxbridge","phone":"905-852-9101"},"geometry":{"type":"Point","coordinates":[-79.12616,44.10526]}},{"type":"Feature","properties":{"name":"Port Perry High School","kind":"Public secondary school","address":"160 Rosa St, PO Box 870","town":"Port Perry","phone":"905-985-7337"},"geometry":{"type":"Point","coordinates":[-78.9517,44.10274]}},{"type":"Feature","properties":{"name":"St Joseph Catholic School - Uxbridge","kind":"Catholic elementary school","address":"25 Quaker Village Dr, PO Box 1570","town":"Uxbridge","phone":"905-852-6242"},"geometry":{"type":"Point","coordinates":[-79.13846,44.10695]}},{"type":"Feature","properties":{"name":"Good Shepherd Catholic School","kind":"Catholic elementary school","address":"1650 Reach St","town":"Port Perry","phone":"905-985-0153"},"geometry":{"type":"Point","coordinates":[-78.96057,44.10973]}},{"type":"Feature","properties":{"name":"McCaskill's Mills Public School","kind":"Public elementary school","address":"85 Albert St","town":"Cannington","phone":"705-432-2601"},"geometry":{"type":"Point","coordinates":[-79.04511,44.345]}},{"type":"Feature","properties":{"name":"Beaverton Public School","kind":"Public elementary school","address":"270 King St W, PO Box 400","town":"Beaverton","phone":"705-426-9081"},"geometry":{"type":"Point","coordinates":[-79.15499,44.43329]}},{"type":"Feature","properties":{"name":"Quaker Village Public School","kind":"Public elementary school","address":"295 Brock St W","town":"Uxbridge","phone":"905-852-7303"},"geometry":{"type":"Point","coordinates":[-79.13828,44.10583]}},{"type":"Feature","properties":{"name":"Joseph Gould Public School","kind":"Public elementary school","address":"144 Planks Ln","town":"Uxbridge","phone":"905-852-7631"},"geometry":{"type":"Point","coordinates":[-79.11244,44.1087]}},{"type":"Feature","properties":{"name":"Prince Albert Public School","kind":"Public elementary school","address":"13700 Old Simcoe Rd","town":"Prince Albert","phone":"905-985-2877"},"geometry":{"type":"Point","coordinates":[-78.95318,44.08016]}},{"type":"Feature","properties":{"name":"Cartwright Central Public School","kind":"Public elementary school","address":"10 Alexander St, PO Box 190","town":"Blackstock","phone":"905-986-4227"},"geometry":{"type":"Point","coordinates":[-78.82259,44.11232]}},{"type":"Feature","properties":{"name":"Sunderland Public School","kind":"Public elementary school","address":"41 Albert St, PO Box 9","town":"Sunderland","phone":"705-357-3975"},"geometry":{"type":"Point","coordinates":[-79.06571,44.25995]}},{"type":"Feature","properties":{"name":"Brock High School","kind":"Public secondary school","address":"C1590 Regional Rd 12, RR 1","town":"Cannington","phone":"705-432-2311"},"geometry":{"type":"Point","coordinates":[-79.06647,44.343]}},{"type":"Feature","properties":{"name":"S A Cawker Public School","kind":"Public elementary school","address":"16200 Old Simcoe Rd","town":"Port Perry","phone":"905-985-4491"},"geometry":{"type":"Point","coordinates":[-78.95791,44.11308]}},{"type":"Feature","properties":{"name":"Thorah Central Public School","kind":"Public elementary school","address":"B28775 Hwy 12 & 48, RR 2","town":"Beaverton","phone":"705-426-5858"},"geometry":{"type":"Point","coordinates":[-79.1259,44.43382]}},{"type":"Feature","properties":{"name":"Greenbank Public School","kind":"Public elementary school","address":"1325 Cragg Rd, PO Box 68","town":"Greenbank","phone":"905-985-2567"},"geometry":{"type":"Point","coordinates":[-79.00671,44.15451]}}]}