{"type":"FeatureCollection","features":[{"type":"Feature","properties":{"name":"Lakeview Manor","kind":"Long Term Care","address":"133 Main St","town":"Beaverton","phone":"705-426-7388"},"geometry":{"type":"Point","coordinates":[-79.1634,44.42824]}},{"type":"Feature","properties":{"name":"Port Perry Place","kind":"Long Term Care","address":"15941 Simcoe St","town":"Port Perry","phone":"905-985-3205"},"geometry":{"type":"Point","coordinates":[-78.94937,44.11151]}},{"type":"Feature","properties":{"name":"ReachView Village Long Term Care","kind":"Long Term Care","address":"130 Reach St","town":"Uxbridge","phone":"905-852-5191"},"geometry":{"type":"Point","coordinates":[-79.11189,44.10403]}},{"type":"Feature","properties":{"name":"Port Perry Villa Retirement Living","kind":"Retirement","address":"15987 Simcoe St","town":"Port Perry","phone":"905-985-3312"},"geometry":{"type":"Point","coordinates":[-78.95022,44.11228]}},{"type":"Feature","properties":{"name":"Chartwell Bon Air Long Term Care Residence","kind":"Long Term Care","address":"131 Laidlaw St S","town":"Cannington","phone":"705-432-2385"},"geometry":{"type":"Point","coordinates":[-79.03744,44.34591]}},{"type":"Feature","properties":{"name":"Dre's Lodge Inc.","kind":"Retirement","address":"82 River St","town":"Sunderland","phone":"705-357-2300"},"geometry":{"type":"Point","coordinates":[-79.06648,44.26299]}},{"type":"Feature","properties":{"name":"West Shore Residence","kind":"Retirement","address":"293 Perry St","town":"Port Perry","phone":"905-985-8660"},"geometry":{"type":"Point","coordinates":[-78.94786,44.1067]}},{"type":"Feature","properties":{"name":"Butternut Manor","kind":"Retirement","address":"3 Norm Goodspeed Dr","town":"Uxbridge","phone":"905-852-6777"},"geometry":{"type":"Point","coordinates":[-79.1395,44.10425]}},{"type":"Feature","properties":{"name":"Brookside Apartments","kind":"Senior Residence","address":"20 Perry Street","town":"Uxbridge ","phone":"905-666-6222"},"geometry":{"type":"Point","coordinates":[-79.12875,44.10332]}},{"type":"Feature","properties":{"name":"Gillespie Gardens","kind":"Senior Residence","address":"75 Nine Mile Road","town":"Beaverton","phone":"905-436-6610"},"geometry":{"type":"Point","coordinates":[-79.16415,44.4269]}},{"type":"Feature","properties":{"name":"Immaculate Conception - J.D. Cochrane Court","kind":"Senior Residence","address":"61 Ash Street","town":"Port Perry ","phone":"905-985-4322"},"geometry":{"type":"Point","coordinates":[-78.9514,44.09654]}},{"type":"Feature","properties":{"name":"Kellett Manor","kind":"Senior Residence","address":"327 Kellett Street ","town":"Port Perry ","phone":"905-666-6222"},"geometry":{"type":"Point","coordinates":[-78.95053,44.1103]}},{"type":"Feature","properties":{"name":"Maple Glen Apartments","kind":"Senior Residence","address":"36 Church Street ","town":"Sunderland","phone":"905-436-6610"},"geometry":{"type":"Point","coordinates":[-79.06729,44.2601]}},{"type":"Feature","properties":{"name":"Spruce Haven","kind":"Senior Residence","address":"103 Cameron Street West","town":"Cannington","phone":"905-666-6222"},"geometry":{"type":"Point","coordinates":[-79.04343,44.34931]}},{"type":"Feature","properties":{"name":"Spruce Lawn Apartments","kind":"Senior Residence","address":"385 Rosa Street","town":"Port Perry","phone":"905-666-6222"},"geometry":{"type":"Point","coordinates":[-78.95395,44.10917]}},{"type":"Feature","properties":{"name":"Wayside Apartments","kind":"Senior Residence","address":"342 Main Street","town":"Beaverton","phone":"905-666-6222"},"geometry":{"type":"Point","coordinates":[-79.15379,44.43145]}},{"type":"Feature","properties":{"name":"Douglas Crossing Retirement Community","kind":"Retirement","address":"6 Douglas Road","town":"Uxbridge","phone":"289-640-1922"},"geometry":{"type":"Point","coordinates":[-79.13086,44.09146]}}]}