{"type":"FeatureCollection","features":[{"type":"Feature","properties":{"name":"Trans Canada Trail","kind":"Trail","town":"Uxbridge"},"geometry":{"type":"LineString","coordinates":[[-79.12056,44.10726],[-79.12056,44.10726],[-79.12001,44.10606],[-79.1198,44.10544]]}},{"type":"Feature","properties":{"name":"Oak Ridges Trail","kind":"Trail","town":"Scugog"},"geometry":{"type":"LineString","coordinates":[[-78.75736,44.05858],[-78.75736,44.0586],[-78.75733,44.05873],[-78.75734,44.05888],[-78.75738,44.05904],[-78.75824,44.06074],[-78.76114,44.06687],[-78.76304,44.0664],[-78.77051,44.0647],[-78.7781,44.06289],[-78.78103,44.06223],[-78.78267,44.06186],[-78.7853,44.06129],[-78.78726,44.06082],[-78.79379,44.05926],[-78.79706,44.05851],[-78.79995,44.05782],[-78.80024,44.05772],[-78.80183,44.05737],[-78.80392,44.05689],[-78.80551,44.05649],[-78.80693,44.05601],[-78.80737,44.05591],[-78.80811,44.05579],[-78.80883,44.05565],[-78.80931,44.05557],[-78.80997,44.05545],[-78.81048,44.05527],[-78.81092,44.05518],[-78.81185,44.05489],[-78.81261,44.05477],[-78.81357,44.05448],[-78.81393,44.05444],[-78.81431,44.05428],[-78.81665,44.0538],[-78.81706,44.05361],[-78.81781,44.05344],[-78.8181,44.05335],[-78.81848,44.05327],[-78.81936,44.05313],[-78.82103,44.0527],[-78.82313,44.05221],[-78.82447,44.05186],[-78.82479,44.05181],[-78.82506,44.05173],[-78.82552,44.05164],[-78.82978,44.05061],[-78.82976,44.0506],[-78.83134,44.05408],[-78.83135,44.05411],[-78.83507,44.0626],[-78.83507,44.0626],[-78.84075,44.06121],[-78.84657,44.05981],[-78.84836,44.05944],[-78.85563,44.05784],[-78.85653,44.0576],[-78.858,44.05728],[-78.85834,44.05718],[-78.8593,44.05698],[-78.86007,44.05678],[-78.86042,44.05671],[-78.8615,44.05649],[-78.8623,44.05628],[-78.86627,44.05539],[-78.87107,44.05428],[-78.87755,44.05286],[-78.87755,44.05286],[-78.87683,44.05132],[-78.87664,44.05097],[-78.87645,44.05084],[-78.87619,44.05069],[-78.87549,44.05022],[-78.87522,44.05005],[-78.87492,44.04975],[-78.87479,44.04948],[-78.87477,44.04919],[-78.87474,44.04879],[-78.87477,44.04851],[-78.87493,44.04818],[-78.87508,44.04793],[-78.87517,44.04775],[-78.87517,44.04763],[-78.87514,44.04749],[-78.87518,44.04735],[-78.87517,44.04736],[-78.88079,44.04613],[-78.89271,44.0435],[-78.90464,44.04088],[-78.91654,44.03822],[-78.91652,44.0382],[-78.91651,44.03819],[-78.91624,44.03804],[-78.91588,44.03791],[-78.91574,44.03786]]}},{"type":"Feature","properties":{"name":"Trans Canada Trail","kind":"Trail","town":"Uxbridge"},"geometry":{"type":"LineString","coordinates":[[-79.1198,44.10544],[-79.12004,44.10535],[-79.12016,44.10527]]}},{"type":"Feature","properties":{"name":"Oak Ridges Trail","kind":"Trail","town":"Uxbridge"},"geometry":{"type":"LineString","coordinates":[[-79.14322,44.037],[-79.14316,44.03702],[-79.14316,44.03702],[-79.14316,44.03702],[-79.14311,44.03705],[-79.1429,44.03712],[-79.14271,44.03714],[-79.1425,44.03718],[-79.14226,44.03721],[-79.14203,44.03732],[-79.142,44.03735],[-79.14199,44.03737],[-79.14197,44.03739],[-79.14181,44.03754],[-79.14172,44.03761],[-79.14167,44.03766],[-79.1414,44.0378],[-79.14136,44.03779],[-79.14135,44.03773],[-79.14136,44.03768],[-79.14131,44.03752],[-79.14128,44.0375],[-79.14119,44.03742],[-79.14097,44.03729],[-79.14082,44.03721],[-79.14063,44.03715],[-79.14047,44.03708],[-79.14037,44.03701],[-79.1402,44.03698],[-79.14007,44.03689],[-79.14,44.03676],[-79.14,44.03665],[-79.14017,44.03658],[-79.14017,44.03658],[-79.14017,44.03658],[-79.14019,44.03657],[-79.1402,44.03656],[-79.14022,44.03653],[-79.14026,44.03649],[-79.14026,44.03638],[-79.1402,44.03631],[-79.14004,44.03623],[-79.13996,44.0362],[-79.1398,44.03615],[-79.13966,44.0361],[-79.13953,44.03606],[-79.13953,44.03607],[-79.13934,44.03607],[-79.13915,44.03608],[-79.13904,44.03612],[-79.139,44.03613],[-79.13886,44.03615],[-79.13868,44.03619],[-79.13847,44.03625],[-79.13831,44.03626],[-79.1382,44.03627],[-79.13806,44.03627],[-79.13796,44.03628],[-79.13785,44.03627],[-79.13751,44.03631],[-79.13738,44.0363],[-79.13667,44.03635],[-79.13657,44.0364],[-79.13654,44.03641],[-79.13622,44.03648],[-79.13617,44.03649],[-79.13606,44.03652],[-79.13584,44.03655],[-79.13583,44.03656],[-79.13568,44.0366],[-79.13564,44.03662],[-79.13564,44.03662],[-79.13564,44.03662],[-79.1356,44.03666],[-79.13533,44.03677],[-79.13498,44.03692],[-79.13492,44.03694],[-79.1349,44.03695],[-79.13489,44.03696],[-79.13469,44.03706],[-79.1345,44.03717],[-79.13442,44.03723],[-79.13418,44.0373],[-79.13403,44.03734],[-79.134,44.03734],[-79.13398,44.03735],[-79.13385,44.03737],[-79.13352,44.03743],[-79.13331,44.03742],[-79.1333,44.03743],[-79.13314,44.03737],[-79.13295,44.03725],[-79.13278,44.03712],[-79.13266,44.03702],[-79.13255,44.0369],[-79.13253,44.03689],[-79.13243,44.03688],[-79.13216,44.03681],[-79.13205,44.03677],[-79.13189,44.03676],[-79.13184,44.03677],[-79.13173,44.03681],[-79.13157,44.03681],[-79.13132,44.03686],[-79.13118,44.03689],[-79.13093,44.03692],[-79.13091,44.03693],[-79.13089,44.03693],[-79.13087,44.03695],[-79.13018,44.03793],[-79.13007,44.0381],[-79.13006,44.03818],[-79.12999,44.03822],[-79.12995,44.03824],[-79.12995,44.03824],[-79.12991,44.03826]]}},{"type":"Feature","properties":{"name":"Trans Canada Trail","kind":"Trail","town":"Uxbridge"},"geometry":{"type":"LineString","coordinates":[[-79.12333,44.10706],[-79.12274,44.1069],[-79.12241,44.10684],[-79.12239,44.10685]]}},{"type":"Feature","properties":{"name":"Oak Ridges Trail","kind":"Trail","town":"Uxbridge"},"geometry":{"type":"LineString","coordinates":[[-79.2373,44.01201],[-79.23716,44.0119],[-79.23648,44.01135],[-79.23588,44.01083],[-79.2357,44.0106],[-79.23551,44.01026],[-79.23541,44.01001],[-79.23537,44.00981],[-79.23543,44.00956],[-79.23566,44.00922],[-79.23585,44.00899],[-79.23587,44.00879]]}},{"type":"Feature","properties":{"name":"Oak Ridges Trail","kind":"Trail","town":"Uxbridge"},"geometry":{"type":"LineString","coordinates":[[-79.12709,44.03878],[-79.12708,44.03878],[-79.12704,44.03879],[-79.12584,44.03906],[-79.12571,44.03911],[-79.12552,44.03909],[-79.1255,44.03907],[-79.12546,44.03903],[-79.12538,44.03886],[-79.125,44.03787],[-79.125,44.03776],[-79.125,44.03776],[-79.12499,44.03775],[-79.1249,44.03758],[-79.12489,44.03755],[-79.12486,44.03746],[-79.12478,44.03733],[-79.12468,44.03726],[-79.12456,44.03726],[-79.12456,44.03726],[-79.12456,44.03726],[-79.12455,44.03727],[-79.12447,44.03727],[-79.12442,44.03727],[-79.12416,44.03739],[-79.12408,44.03743],[-79.12408,44.03744],[-79.12408,44.03744],[-79.12404,44.03746],[-79.12394,44.0376],[-79.12388,44.03764],[-79.12377,44.03769],[-79.12296,44.0379],[-79.12295,44.03791],[-79.12276,44.0379],[-79.1226,44.0379],[-79.12248,44.0379],[-79.12218,44.03785],[-79.12196,44.03782],[-79.12167,44.03784],[-79.12141,44.03777],[-79.12132,44.03777],[-79.12108,44.03767],[-79.12103,44.03762],[-79.12102,44.0375],[-79.121,44.03749],[-79.12095,44.03746],[-79.11994,44.03692],[-79.11992,44.03692],[-79.11975,44.03683],[-79.11964,44.0368],[-79.11951,44.03678]]}},{"type":"Feature","properties":{"name":"Wooden Sticks","kind":"Trail","town":"Uxbridge"},"geometry":{"type":"LineString","coordinates":[[-79.12533,44.09657],[-79.12536,44.09604],[-79.12545,44.09568],[-79.12589,44.09491],[-79.12614,44.09465],[-79.1261,44.09462],[-79.12591,44.09456],[-79.12586,44.09442],[-79.12605,44.09423],[-79.12654,44.09411],[-79.12687,44.09319],[-79.12625,44.09202],[-79.12658,44.09194],[-79.12596,44.09066],[-79.12706,44.0904],[-79.12625,44.08898],[-79.12649,44.08892],[-79.1264,44.08829]]}},{"type":"Feature","properties":{"name":"Port Perry Waterfront Trail","kind":"Trail","town":"Scugog"},"geometry":{"type":"LineString","coordinates":[[-78.9397,44.10202],[-78.93962,44.102],[-78.93956,44.10201],[-78.93935,44.1021],[-78.93929,44.10212],[-78.93917,44.10216],[-78.93911,44.1022],[-78.93903,44.10226]]}},{"type":"Feature","properties":{"name":"Port Perry Waterfront Trail","kind":"Trail","town":"Scugog"},"geometry":{"type":"LineString","coordinates":[[-78.94743,44.10887],[-78.94753,44.10892],[-78.94885,44.10962]]}},{"type":"Feature","properties":{"name":"Trans Canada Trail","kind":"Trail","town":"Uxbridge"},"geometry":{"type":"LineString","coordinates":[[-79.12128,44.11128],[-79.11983,44.11163],[-79.11857,44.11192],[-79.11869,44.11221],[-79.11946,44.11386],[-79.11948,44.11393],[-79.11953,44.1141],[-79.11956,44.11427],[-79.11957,44.11432],[-79.11956,44.11436],[-79.11956,44.11452],[-79.11957,44.11467],[-79.11959,44.11482],[-79.11962,44.11498],[-79.11963,44.115],[-79.11963,44.11501],[-79.11965,44.11509],[-79.11991,44.11536],[-79.12008,44.11554],[-79.12012,44.11561],[-79.12017,44.11571],[-79.12025,44.11599],[-79.12026,44.1161],[-79.12028,44.11625],[-79.12028,44.1163],[-79.12052,44.11602],[-79.12068,44.11609]]}},{"type":"Feature","properties":{"name":"Trans Canada Trail","kind":"Trail","town":"Uxbridge"},"geometry":{"type":"LineString","coordinates":[[-79.08115,44.07977],[-79.08127,44.08003]]}},{"type":"Feature","properties":{"name":"Trans Canada Trail","kind":"Trail","town":"Uxbridge"},"geometry":{"type":"LineString","coordinates":[[-79.12409,44.10853],[-79.12409,44.10829],[-79.12404,44.1081],[-79.12393,44.10784]]}},{"type":"Feature","properties":{"name":"Port Perry Waterfront Trail","kind":"Trail","town":"Scugog"},"geometry":{"type":"LineString","coordinates":[[-78.939,44.10234],[-78.93899,44.10234],[-78.93898,44.10234],[-78.93897,44.10234],[-78.93896,44.10233],[-78.93895,44.10233],[-78.93895,44.10232],[-78.93895,44.10231],[-78.93894,44.10231],[-78.93894,44.1023],[-78.93894,44.10229],[-78.93895,44.10229],[-78.93895,44.10228],[-78.93896,44.10227],[-78.93896,44.10227],[-78.93897,44.10226],[-78.93898,44.10226],[-78.93899,44.10226],[-78.939,44.10226],[-78.93901,44.10226],[-78.93902,44.10226],[-78.93903,44.10226],[-78.93904,44.10227],[-78.93905,44.10227],[-78.93905,44.10228],[-78.93906,44.10229],[-78.93906,44.10229],[-78.93906,44.1023],[-78.93906,44.10231],[-78.93905,44.10232],[-78.93905,44.10232],[-78.93904,44.10233],[-78.93904,44.10233],[-78.93903,44.10234],[-78.93902,44.10234],[-78.93901,44.10234],[-78.939,44.10234]]}},{"type":"Feature","properties":{"name":"Oak Ridges Trail","kind":"Trail","town":"Uxbridge"},"geometry":{"type":"LineString","coordinates":[[-79.21192,44.01115],[-79.21127,44.00968],[-79.21084,44.00869],[-79.20975,44.00613],[-79.209,44.00434],[-79.20896,44.00435],[-79.20889,44.00436],[-79.20889,44.00438],[-79.20889,44.00439],[-79.20883,44.00441],[-79.20872,44.00441],[-79.20648,44.00493],[-79.20644,44.00493],[-79.20635,44.00488],[-79.20631,44.00487],[-79.20626,44.00478],[-79.20625,44.00477],[-79.20625,44.00476],[-79.20624,44.00474],[-79.20612,44.00451],[-79.20608,44.00447],[-79.20603,44.00445],[-79.20592,44.0044],[-79.2057,44.00435],[-79.20562,44.00432],[-79.20562,44.00432],[-79.20555,44.00427],[-79.20539,44.00399],[-79.20525,44.00368],[-79.20502,44.00341],[-79.20495,44.00334],[-79.20495,44.00333],[-79.20493,44.0033],[-79.20488,44.00325],[-79.20473,44.00309],[-79.20442,44.00288],[-79.204,44.00282],[-79.20395,44.0028],[-79.20394,44.0028],[-79.20387,44.00285],[-79.20374,44.00306],[-79.20367,44.00315],[-79.20366,44.00316],[-79.20363,44.00323],[-79.20364,44.00324],[-79.20366,44.00328],[-79.2039,44.00346],[-79.20408,44.00367],[-79.20409,44.00377],[-79.20407,44.00383],[-79.20404,44.00391],[-79.20402,44.00395],[-79.20402,44.00396],[-79.20399,44.00399],[-79.20398,44.00403],[-79.20393,44.00414],[-79.20392,44.00416],[-79.20364,44.00419],[-79.20364,44.0042],[-79.20355,44.00429],[-79.20347,44.00443],[-79.20344,44.00458],[-79.20344,44.00459],[-79.20344,44.00459],[-79.20335,44.00469],[-79.20331,44.00474],[-79.2033,44.00474],[-79.2033,44.00474],[-79.20331,44.00477],[-79.20327,44.00495],[-79.20325,44.00499],[-79.20323,44.0051],[-79.2032,44.0052],[-79.20319,44.00522],[-79.20318,44.00535],[-79.20319,44.00544],[-79.20319,44.00546],[-79.20319,44.00558],[-79.20308,44.00559],[-79.20291,44.0056],[-79.20282,44.00561],[-79.20279,44.00562],[-79.20277,44.00563],[-79.20273,44.00564],[-79.20264,44.00565],[-79.20231,44.00566],[-79.20217,44.00569],[-79.20202,44.00572],[-79.20201,44.00572],[-79.20198,44.00572],[-79.20192,44.00573],[-79.20177,44.00577],[-79.20156,44.00583],[-79.20124,44.00595],[-79.20096,44.00607],[-79.20077,44.00614],[-79.20052,44.00616],[-79.20048,44.00617],[-79.20035,44.0062],[-79.20016,44.00623],[-79.20002,44.00627],[-79.19994,44.00629],[-79.19985,44.00632],[-79.19971,44.00636],[-79.19941,44.00641],[-79.19914,44.00648],[-79.199,44.00653],[-79.19897,44.00653],[-79.19893,44.00654],[-79.1989,44.00654],[-79.1986,44.00664],[-79.19847,44.00667],[-79.19821,44.00672],[-79.19816,44.00672],[-79.19798,44.00675],[-79.19795,44.00677],[-79.19792,44.00678],[-79.19778,44.0068],[-79.19767,44.0068],[-79.19757,44.00677],[-79.19753,44.00675],[-79.19744,44.00678],[-79.19734,44.00684],[-79.19733,44.00685],[-79.19732,44.00685],[-79.19728,44.00687],[-79.19704,44.00696],[-79.19697,44.00696],[-79.19681,44.00699],[-79.19679,44.00699],[-79.19657,44.00704],[-79.19654,44.00705],[-79.19622,44.00713],[-79.19604,44.00718],[-79.19593,44.0072],[-79.19588,44.0072],[-79.19564,44.00725],[-79.19559,44.00725],[-79.19551,44.00725],[-79.19537,44.00723],[-79.19507,44.00733],[-79.19476,44.00745],[-79.19473,44.00745],[-79.19455,44.00747],[-79.19426,44.00755],[-79.19421,44.00756],[-79.19418,44.00756],[-79.19414,44.00757],[-79.19397,44.00761],[-79.19395,44.00761],[-79.19394,44.00761],[-79.19391,44.00761],[-79.19378,44.00761],[-79.19372,44.00763],[-79.19359,44.00765],[-79.19348,44.00765],[-79.19301,44.00764],[-79.19273,44.00763],[-79.19224,44.00762],[-79.19215,44.00761],[-79.19214,44.00762],[-79.19208,44.00763],[-79.19201,44.00763],[-79.19182,44.00769],[-79.19169,44.00774],[-79.19166,44.00775],[-79.19165,44.00775],[-79.19163,44.00776],[-79.19161,44.00777],[-79.19149,44.00782],[-79.19136,44.00788],[-79.19121,44.00794],[-79.19117,44.00795],[-79.19104,44.00801],[-79.19102,44.00802],[-79.19091,44.00804],[-79.1908,44.00801],[-79.19077,44.008],[-79.19067,44.00797],[-79.19055,44.00795],[-79.19053,44.00795],[-79.19041,44.00802],[-79.19023,44.00794],[-79.19008,44.0079],[-79.19,44.00787],[-79.18987,44.00783],[-79.18976,44.00776],[-79.18947,44.00772],[-79.18922,44.00782],[-79.18898,44.0079],[-79.18896,44.00791],[-79.18873,44.00804],[-79.18855,44.00808],[-79.18824,44.00816],[-79.18813,44.00819],[-79.18804,44.0082],[-79.18781,44.00824],[-79.18777,44.00825],[-79.1875,44.00833],[-79.18726,44.00839],[-79.18706,44.00843],[-79.18673,44.00849],[-79.18655,44.00844],[-79.18616,44.00851],[-79.18596,44.00855],[-79.18589,44.00852],[-79.18588,44.00852],[-79.18588,44.00851],[-79.18586,44.00844],[-79.18575,44.00837],[-79.18575,44.00836],[-79.18575,44.00836],[-79.18575,44.00836],[-79.18556,44.00834],[-79.18527,44.00822],[-79.18524,44.0082],[-79.18523,44.00818],[-79.18498,44.00801],[-79.18474,44.00799],[-79.18444,44.00805],[-79.18413,44.0081],[-79.18412,44.0081],[-79.18411,44.0081],[-79.18404,44.00811],[-79.18399,44.00812],[-79.18439,44.00908],[-79.1848,44.01005],[-79.18517,44.01091],[-79.18514,44.01091],[-79.18515,44.01091],[-79.18515,44.01092],[-79.18509,44.01096],[-79.18507,44.01097],[-79.18505,44.01099],[-79.18502,44.011],[-79.18482,44.01103],[-79.18465,44.01109],[-79.18439,44.01112],[-79.18426,44.01121],[-79.18422,44.01125],[-79.18407,44.01135],[-79.18391,44.01146],[-79.18374,44.01158],[-79.1836,44.01165],[-79.18357,44.01171],[-79.18357,44.01168],[-79.18344,44.01177],[-79.18336,44.01177],[-79.18332,44.01177],[-79.18328,44.0118],[-79.18311,44.01189],[-79.18305,44.01192],[-79.18302,44.01192],[-79.18285,44.01196],[-79.18273,44.01196],[-79.18268,44.01198],[-79.18262,44.01199],[-79.18248,44.01204],[-79.18245,44.01205],[-79.18229,44.01209],[-79.18225,44.0121],[-79.18218,44.0121],[-79.18203,44.01213],[-79.18172,44.01228],[-79.18162,44.01231],[-79.18149,44.01234],[-79.18138,44.01237],[-79.18135,44.01238],[-79.18126,44.01239],[-79.18115,44.01243],[-79.18107,44.01244],[-79.18099,44.01246],[-79.18089,44.01249],[-79.18076,44.01264],[-79.18075,44.01265],[-79.18061,44.01277],[-79.18048,44.01285],[-79.18043,44.01287],[-79.18033,44.01291]]}},{"type":"Feature","properties":{"name":"Uxbridge Countryside Preserve","kind":"Trail","town":"Uxbridge"},"geometry":{"type":"LineString","coordinates":[[-79.12892,44.08483],[-79.12864,44.0847],[-79.12855,44.08463]]}},{"type":"Feature","properties":{"name":"Trans Canada Trail","kind":"Trail","town":"Uxbridge"},"geometry":{"type":"MultiLineString","coordinates":[[[-79.09929,44.02378],[-79.0993,44.0238],[-79.0993,44.02375],[-79.09929,44.02378]],[[-79.09929,44.02378],[-79.09924,44.02392],[-79.09926,44.02393],[-79.09928,44.02396],[-79.09942,44.02409],[-79.09931,44.02427],[-79.09928,44.02438],[-79.09925,44.02449],[-79.09925,44.02461],[-79.09926,44.02464],[-79.09928,44.02466],[-79.09939,44.02476],[-79.09952,44.02483],[-79.09975,44.02494],[-79.1007,44.02547],[-79.10085,44.02557],[-79.10088,44.02558],[-79.10098,44.02565],[-79.10111,44.02574],[-79.10118,44.02577],[-79.10132,44.02594],[-79.10139,44.02614],[-79.10156,44.02641],[-79.10169,44.02674],[-79.10174,44.02688],[-79.10176,44.0269],[-79.10176,44.0269],[-79.10177,44.02699],[-79.10186,44.02725],[-79.10185,44.02738],[-79.10187,44.02753],[-79.10195,44.02767],[-79.10203,44.02785],[-79.10204,44.02784],[-79.10206,44.0279],[-79.1021,44.02804],[-79.10222,44.02817],[-79.10211,44.02833],[-79.10206,44.02847],[-79.10201,44.02854],[-79.10193,44.02871],[-79.10192,44.02875],[-79.10192,44.02881],[-79.10199,44.029],[-79.10204,44.02913],[-79.10212,44.0293],[-79.10212,44.0295],[-79.10211,44.02967],[-79.10211,44.02985],[-79.10212,44.02986],[-79.10212,44.02988],[-79.10228,44.03012],[-79.10231,44.03024],[-79.10221,44.03025],[-79.10194,44.03022],[-79.10192,44.03022],[-79.10184,44.03023],[-79.10169,44.03028],[-79.10159,44.03037],[-79.10157,44.0304],[-79.10152,44.03042],[-79.10129,44.03058],[-79.10124,44.03061],[-79.10122,44.03064],[-79.10115,44.03076],[-79.10113,44.03083],[-79.10114,44.03086],[-79.10114,44.031],[-79.10113,44.03107],[-79.10102,44.03131],[-79.10101,44.03136],[-79.10107,44.03157],[-79.10113,44.0318],[-79.10113,44.03183],[-79.10115,44.03193]]]}},{"type":"Feature","properties":{"name":"Oak Ridges Trail","kind":"Trail","town":"Scugog"},"geometry":{"type":"LineString","coordinates":[[-78.95981,44.02862],[-78.96273,44.03531],[-78.96532,44.04127],[-78.96536,44.04128],[-78.96671,44.04097],[-78.97291,44.03966],[-78.97961,44.03825],[-78.98096,44.03799],[-78.98154,44.0394],[-78.98333,44.04381],[-78.98724,44.04296],[-78.99508,44.04125],[-78.99923,44.04035],[-78.99943,44.04031],[-78.99959,44.04031],[-78.99973,44.04037],[-79.00249,44.04205],[-79.00707,44.04488],[-79.00726,44.04493],[-79.00746,44.04494],[-79.00766,44.04492],[-79.01004,44.04438],[-79.01281,44.04374],[-79.01435,44.04339],[-79.01645,44.04301],[-79.01646,44.043],[-79.01648,44.04305],[-79.01667,44.04327],[-79.01691,44.04356],[-79.017,44.04355],[-79.01702,44.04355],[-79.01706,44.04355],[-79.01727,44.04348],[-79.0175,44.04343],[-79.01783,44.04337],[-79.01791,44.04335],[-79.01791,44.04335],[-79.01813,44.0433],[-79.01843,44.0432],[-79.01861,44.04314],[-79.01861,44.04314],[-79.01897,44.04302],[-79.01911,44.04298],[-79.01948,44.04286],[-79.01985,44.04268],[-79.0199,44.04261],[-79.02003,44.04248],[-79.02031,44.04232],[-79.02066,44.04214],[-79.02104,44.04198],[-79.02136,44.04191],[-79.02145,44.04188],[-79.02169,44.04182],[-79.02187,44.04179],[-79.0219,44.04179],[-79.02192,44.04178],[-79.02217,44.04173],[-79.0222,44.04173],[-79.02242,44.04168],[-79.02246,44.04167],[-79.02286,44.04161],[-79.02288,44.04161],[-79.02722,44.04062],[-79.02743,44.04059],[-79.02764,44.04055],[-79.02784,44.04049],[-79.02793,44.04047],[-79.02814,44.04044],[-79.02897,44.04025],[-79.02907,44.04023],[-79.02914,44.04021],[-79.0292,44.04019],[-79.02938,44.04019],[-79.02976,44.04013],[-79.02978,44.04012],[-79.03008,44.04008],[-79.0301,44.04008],[-79.03013,44.04007],[-79.0303,44.04005],[-79.03083,44.03995],[-79.03106,44.0399],[-79.03129,44.03988],[-79.03135,44.03987],[-79.03153,44.03981],[-79.03178,44.03974],[-79.03206,44.03967],[-79.03218,44.03966],[-79.03242,44.03955],[-79.03271,44.03947],[-79.03286,44.03942],[-79.03291,44.03939],[-79.03319,44.03935],[-79.03341,44.03932],[-79.0338,44.03928],[-79.03405,44.03923],[-79.03417,44.0392],[-79.03431,44.03918],[-79.03491,44.03908],[-79.03515,44.03902],[-79.0352,44.03901],[-79.03522,44.03901],[-79.03548,44.03893],[-79.03567,44.03891],[-79.03588,44.03886],[-79.03605,44.03881],[-79.0363,44.03875],[-79.03635,44.03873],[-79.0364,44.03871],[-79.03677,44.0386],[-79.03858,44.0382],[-79.03878,44.03818],[-79.03881,44.03818],[-79.03891,44.03816],[-79.03915,44.03813],[-79.03941,44.03807],[-79.0397,44.03799],[-79.03988,44.03793],[-79.04012,44.03785],[-79.04034,44.03777],[-79.04059,44.03774],[-79.04073,44.03766],[-79.04092,44.0376],[-79.04102,44.03759],[-79.04125,44.03755],[-79.04143,44.03753],[-79.04169,44.0375],[-79.04181,44.03747],[-79.04181,44.03747],[-79.04182,44.03747],[-79.04185,44.03746],[-79.04223,44.03737],[-79.04266,44.03727],[-79.04287,44.03721],[-79.04293,44.03719],[-79.04317,44.03712],[-79.04337,44.03709],[-79.04356,44.03709],[-79.04373,44.03706],[-79.04381,44.03704],[-79.04402,44.03696],[-79.04422,44.03692],[-79.04425,44.03691],[-79.04426,44.03691],[-79.04436,44.03691],[-79.04453,44.0369],[-79.04478,44.03685],[-79.04501,44.03681],[-79.0452,44.03679],[-79.04538,44.03673],[-79.04543,44.03671],[-79.04559,44.03666],[-79.04571,44.03664],[-79.04584,44.03665],[-79.0459,44.03664],[-79.04608,44.03662],[-79.0461,44.03662],[-79.04627,44.0366],[-79.04651,44.03656],[-79.04662,44.03654],[-79.04683,44.03648],[-79.04691,44.03645],[-79.04705,44.03639],[-79.04708,44.03636],[-79.04712,44.03631],[-79.04725,44.03613],[-79.04728,44.03599],[-79.04729,44.03594],[-79.04733,44.03585],[-79.04737,44.03573],[-79.04737,44.03569],[-79.04741,44.03554],[-79.04739,44.03548],[-79.0474,44.03544]]}},{"type":"Feature","properties":{"name":"Oak Ridges Trail","kind":"Trail","town":"Uxbridge"},"geometry":{"type":"LineString","coordinates":[[-79.17996,44.0135],[-79.17997,44.01352],[-79.18002,44.01377],[-79.18009,44.01397],[-79.18009,44.014],[-79.18013,44.01412],[-79.18013,44.0142],[-79.18022,44.01439],[-79.18025,44.01444],[-79.18027,44.01446]]}},{"type":"Feature","properties":{"name":"Port Perry Waterfront Trail","kind":"Trail","town":"Scugog"},"geometry":{"type":"LineString","coordinates":[[-78.93896,44.10233],[-78.93893,44.10236],[-78.93891,44.1024],[-78.93891,44.10244],[-78.93895,44.10255],[-78.93901,44.10266],[-78.93904,44.1027],[-78.93914,44.10273],[-78.93915,44.10275],[-78.93915,44.10278],[-78.93914,44.10284],[-78.93914,44.10289],[-78.93916,44.10296],[-78.93919,44.10303],[-78.93923,44.10308],[-78.93926,44.10313],[-78.9393,44.10319],[-78.93933,44.10321],[-78.93937,44.10325],[-78.93942,44.10328],[-78.93944,44.1033],[-78.9395,44.10336],[-78.93957,44.10342],[-78.93961,44.10347],[-78.93968,44.10351],[-78.93977,44.10355],[-78.93982,44.10355],[-78.93988,44.10356],[-78.93994,44.10359],[-78.93998,44.10361],[-78.94002,44.10366],[-78.94004,44.1037],[-78.94005,44.10374],[-78.94006,44.10379],[-78.94005,44.10387],[-78.94004,44.10398],[-78.94005,44.10406],[-78.94008,44.10413],[-78.94014,44.10425],[-78.94018,44.10431],[-78.94023,44.10436],[-78.9403,44.1044],[-78.94038,44.10443],[-78.94044,44.10447],[-78.94052,44.10452],[-78.94059,44.10457],[-78.94063,44.10461],[-78.94067,44.10466],[-78.9407,44.10471],[-78.9407,44.10475],[-78.94071,44.10481],[-78.9407,44.10488],[-78.94069,44.10494],[-78.94069,44.10496],[-78.94082,44.10514],[-78.94105,44.10544],[-78.94118,44.10562],[-78.94124,44.1056],[-78.94142,44.10586]]}},{"type":"Feature","properties":{"name":"Trans Canada Trail","kind":"Trail","town":"Uxbridge"},"geometry":{"type":"LineString","coordinates":[[-79.12333,44.10706],[-79.1235,44.10683]]}},{"type":"Feature","properties":{"name":"Trans Canada Trail","kind":"Trail","town":"Uxbridge"},"geometry":{"type":"LineString","coordinates":[[-79.07673,44.06964],[-79.07672,44.06963],[-79.07659,44.06945],[-79.07648,44.06902],[-79.0763,44.06873],[-79.07619,44.06845],[-79.07611,44.06823],[-79.07611,44.06824],[-79.076,44.06818],[-79.07596,44.06796],[-79.0759,44.06775],[-79.07578,44.06761],[-79.07572,44.06739],[-79.07563,44.06724],[-79.07549,44.06695],[-79.07547,44.06674],[-79.07534,44.06648],[-79.07517,44.0662],[-79.07531,44.06609],[-79.07582,44.06594],[-79.07649,44.06582],[-79.07711,44.06567],[-79.07785,44.06549],[-79.07841,44.06536],[-79.07908,44.06522],[-79.07978,44.06506],[-79.0805,44.06489],[-79.08096,44.0648],[-79.08132,44.06465],[-79.08169,44.06461],[-79.08191,44.06454],[-79.08209,44.06451],[-79.08241,44.0644],[-79.08262,44.06429],[-79.08276,44.06428],[-79.08305,44.06416],[-79.08348,44.06412],[-79.0839,44.06402],[-79.08438,44.0639],[-79.0848,44.06379],[-79.08527,44.06372],[-79.08571,44.06362],[-79.08598,44.06354],[-79.08627,44.06345],[-79.08644,44.06342],[-79.08668,44.06336],[-79.08669,44.06322],[-79.08655,44.06299],[-79.08642,44.06277],[-79.08631,44.06242],[-79.08618,44.06201],[-79.08606,44.06171],[-79.08604,44.06159],[-79.08591,44.06148],[-79.08583,44.06138],[-79.0859,44.06129],[-79.08588,44.06068],[-79.08583,44.05979],[-79.08604,44.05974],[-79.08628,44.05964],[-79.08747,44.05932],[-79.08745,44.05907],[-79.08733,44.05882],[-79.08713,44.05824],[-79.08705,44.058],[-79.08715,44.05766],[-79.0869,44.05773],[-79.08675,44.05743],[-79.08714,44.05727],[-79.08754,44.05714],[-79.08753,44.05701],[-79.08734,44.05653],[-79.08705,44.05593],[-79.08688,44.05551],[-79.08675,44.05531],[-79.08675,44.05508],[-79.08689,44.05496],[-79.0871,44.05485],[-79.08733,44.05457],[-79.08754,44.05422],[-79.08765,44.05375],[-79.0877,44.05358],[-79.08778,44.05344],[-79.08793,44.05341],[-79.08807,44.05343],[-79.08822,44.05334]]}},{"type":"Feature","properties":{"name":"Trans Canada Trail","kind":"Trail","town":"Uxbridge"},"geometry":{"type":"LineString","coordinates":[[-79.12227,44.11111],[-79.12216,44.1111],[-79.12128,44.11128]]}},{"type":"Feature","properties":{"name":"Oak Ridges Trail","kind":"Trail","town":"Uxbridge"},"geometry":{"type":"LineString","coordinates":[[-79.11423,44.03421],[-79.1141,44.03392],[-79.11401,44.03374],[-79.11401,44.03374],[-79.11403,44.03371],[-79.11393,44.03373],[-79.1139,44.03374],[-79.1139,44.03374],[-79.1139,44.03373],[-79.11381,44.03375],[-79.11364,44.03379],[-79.11359,44.0338],[-79.11355,44.03381],[-79.10917,44.03487],[-79.10895,44.03493],[-79.10866,44.03502],[-79.10846,44.03507],[-79.10811,44.03516],[-79.10806,44.03517],[-79.10798,44.03518],[-79.10744,44.03529]]}},{"type":"Feature","properties":{"name":"Trans Canada Trail","kind":"Trail","town":"Uxbridge"},"geometry":{"type":"LineString","coordinates":[[-79.09995,44.02248],[-79.09993,44.02253],[-79.09988,44.02263],[-79.09987,44.02274],[-79.09986,44.02276],[-79.09983,44.02284],[-79.0998,44.02296],[-79.09981,44.02302],[-79.0998,44.02305],[-79.09975,44.02319],[-79.09961,44.02339],[-79.09956,44.02341],[-79.09944,44.02351],[-79.09934,44.02361],[-79.09937,44.02364],[-79.09929,44.02376],[-79.09929,44.02378]]}},{"type":"Feature","properties":{"name":"Wooden Sticks","kind":"Trail","town":"Uxbridge"},"geometry":{"type":"LineString","coordinates":[[-79.11948,44.1027],[-79.11975,44.10259],[-79.12027,44.10247],[-79.12043,44.1023],[-79.12046,44.10188],[-79.12038,44.10172],[-79.12032,44.10148],[-79.12015,44.10112],[-79.11999,44.10079],[-79.11978,44.10061],[-79.11969,44.10043],[-79.11959,44.10021],[-79.11953,44.10003],[-79.11944,44.09988],[-79.11893,44.09949],[-79.11877,44.09861],[-79.11885,44.09831],[-79.11885,44.09763]]}},{"type":"Feature","properties":{"name":"Uxbridge Countryside Preserve","kind":"Trail","town":"Uxbridge"},"geometry":{"type":"LineString","coordinates":[[-79.12892,44.08482],[-79.12953,44.08415],[-79.13204,44.08355]]}},{"type":"Feature","properties":{"name":"Port Perry Waterfront Trail","kind":"Trail","town":"Scugog"},"geometry":{"type":"LineString","coordinates":[[-78.93885,44.10224],[-78.9389,44.10227],[-78.93895,44.10228]]}},{"type":"Feature","properties":{"name":"Trans Canada Trail","kind":"Trail","town":"Uxbridge"},"geometry":{"type":"LineString","coordinates":[[-79.12221,44.1069],[-79.12215,44.1069],[-79.12206,44.10692],[-79.12165,44.10702],[-79.12133,44.1071],[-79.12107,44.10716],[-79.12082,44.10722],[-79.12056,44.10726]]}},{"type":"Feature","properties":{"name":"Port Perry Waterfront Trail","kind":"Trail","town":"Scugog"},"geometry":{"type":"LineString","coordinates":[[-78.94142,44.10586],[-78.94132,44.10591],[-78.94153,44.10661],[-78.94212,44.10651],[-78.94254,44.10645],[-78.94256,44.10656],[-78.94286,44.10655],[-78.94301,44.10667],[-78.9443,44.10733],[-78.94491,44.10755]]}},{"type":"Feature","properties":{"name":"Trans Canada Trail","kind":"Trail","town":"Uxbridge"},"geometry":{"type":"LineString","coordinates":[[-79.09111,44.03905],[-79.09085,44.03911],[-79.09083,44.03911],[-79.09083,44.03912],[-79.09081,44.03912],[-79.09066,44.03916],[-79.09051,44.03918],[-79.09016,44.03924],[-79.09004,44.03926],[-79.08993,44.03931],[-79.08989,44.03932],[-79.08957,44.03942],[-79.08931,44.03943],[-79.08929,44.03943],[-79.08922,44.03945],[-79.08922,44.03945],[-79.08909,44.03949],[-79.08923,44.03944],[-79.08915,44.03949],[-79.08915,44.03949],[-79.08891,44.03955],[-79.08847,44.03965],[-79.08827,44.0397],[-79.08376,44.04077],[-79.08333,44.04087],[-79.08332,44.04082],[-79.08323,44.04059],[-79.08323,44.04058],[-79.08307,44.04042],[-79.08298,44.0404],[-79.08259,44.04034],[-79.08244,44.04033],[-79.08189,44.0403],[-79.08164,44.04019],[-79.08143,44.04002],[-79.08135,44.03992],[-79.0812,44.03975],[-79.08106,44.0396],[-79.08104,44.03959],[-79.08072,44.03944],[-79.08067,44.03942],[-79.0805,44.03937],[-79.08027,44.03932],[-79.08023,44.0393],[-79.08012,44.03926],[-79.08004,44.03923],[-79.08001,44.03922],[-79.07979,44.03913],[-79.07975,44.03908],[-79.07975,44.03908],[-79.07965,44.03903],[-79.07959,44.03902],[-79.07935,44.03888],[-79.07903,44.03877],[-79.07894,44.03876],[-79.0789,44.03876],[-79.07857,44.03876],[-79.07843,44.03876],[-79.07829,44.03876],[-79.07794,44.03876],[-79.07784,44.03877],[-79.07782,44.03877],[-79.07758,44.03881],[-79.07742,44.03884],[-79.07717,44.03889],[-79.07697,44.03894],[-79.0767,44.03894],[-79.07639,44.03894],[-79.07634,44.03893],[-79.07605,44.03884],[-79.07597,44.03879],[-79.07595,44.03879],[-79.07589,44.03878],[-79.07585,44.03879],[-79.07583,44.03879],[-79.07577,44.03881],[-79.07556,44.0389],[-79.07552,44.0389],[-79.0755,44.03891],[-79.07535,44.03893],[-79.0753,44.03898],[-79.07531,44.03896],[-79.07531,44.03903],[-79.07531,44.03912],[-79.07533,44.03916],[-79.07535,44.03917],[-79.07546,44.03934],[-79.07557,44.03956],[-79.07558,44.03958],[-79.07563,44.03969],[-79.07576,44.03989],[-79.07586,44.0401],[-79.0759,44.04024],[-79.07595,44.04047],[-79.07596,44.0405],[-79.076,44.0406],[-79.07601,44.04061],[-79.07601,44.04085],[-79.07601,44.04086],[-79.07601,44.04087],[-79.07602,44.04089],[-79.07619,44.04109],[-79.07639,44.04123],[-79.07654,44.04134],[-79.0766,44.04138],[-79.07683,44.0415],[-79.07685,44.04151],[-79.07691,44.04157],[-79.07713,44.0418],[-79.07719,44.04192],[-79.0772,44.04193],[-79.07722,44.04198]]}},{"type":"Feature","properties":{"name":"Trans Canada Trail","kind":"Trail","town":"Uxbridge"},"geometry":{"type":"LineString","coordinates":[[-79.08822,44.05334],[-79.08829,44.05314],[-79.08829,44.05285],[-79.08824,44.0526],[-79.08808,44.05238],[-79.08778,44.05222],[-79.08746,44.05208],[-79.08699,44.052],[-79.08647,44.05191],[-79.08589,44.05183],[-79.08481,44.05181],[-79.08402,44.05188],[-79.08329,44.05186],[-79.08255,44.05183],[-79.08204,44.05183],[-79.08144,44.05186],[-79.0807,44.05193],[-79.08008,44.05195],[-79.07959,44.05188],[-79.07913,44.05139],[-79.07887,44.05104],[-79.07862,44.05059],[-79.07849,44.05009],[-79.07852,44.04993],[-79.07876,44.04987],[-79.07918,44.0498],[-79.07963,44.04968],[-79.08018,44.04958],[-79.08064,44.0495],[-79.08087,44.04931],[-79.08074,44.0491],[-79.08048,44.04874],[-79.08028,44.04835],[-79.07998,44.04761],[-79.07963,44.04676],[-79.07926,44.04582],[-79.07876,44.04454],[-79.07832,44.04347],[-79.07798,44.04275],[-79.0778,44.04238],[-79.07738,44.04216],[-79.07722,44.04198]]}},{"type":"Feature","properties":{"name":"Port Perry Waterfront Trail","kind":"Trail","town":"Scugog"},"geometry":{"type":"LineString","coordinates":[[-78.93902,44.10115],[-78.9397,44.10202]]}},{"type":"Feature","properties":{"name":"Oak Ridges Trail","kind":"Trail","town":"Uxbridge"},"geometry":{"type":"LineString","coordinates":[[-79.07722,44.04198],[-79.07724,44.04202],[-79.07729,44.04213],[-79.07729,44.04218],[-79.07709,44.04232],[-79.07708,44.04233],[-79.07682,44.04241],[-79.07288,44.04333],[-79.07271,44.04333],[-79.07258,44.04338],[-79.07236,44.04345],[-79.0723,44.04348],[-79.0721,44.04352],[-79.07201,44.04354],[-79.07198,44.04354],[-79.07182,44.04357],[-79.07175,44.04358],[-79.0716,44.04358],[-79.07155,44.0436],[-79.07149,44.04364],[-79.07149,44.04366],[-79.0714,44.0437],[-79.07134,44.04377],[-79.07133,44.04378],[-79.07133,44.04378],[-79.07113,44.04384],[-79.07111,44.04385],[-79.07101,44.04387],[-79.07081,44.04389],[-79.07065,44.04392],[-79.07057,44.04394],[-79.0705,44.04398],[-79.07046,44.04399],[-79.07045,44.044],[-79.07044,44.044],[-79.07023,44.04405],[-79.07012,44.04406],[-79.0701,44.04407],[-79.07008,44.04407],[-79.06981,44.04413],[-79.06959,44.04416],[-79.0694,44.04421],[-79.06914,44.04426],[-79.06894,44.04428],[-79.06861,44.04437],[-79.06838,44.04443],[-79.06835,44.04443],[-79.06821,44.04444],[-79.0681,44.04448],[-79.06802,44.04449],[-79.0678,44.04451],[-79.06764,44.04455],[-79.06763,44.04456],[-79.06759,44.04457],[-79.06737,44.04465],[-79.06379,44.04549],[-79.06304,44.04563]]}},{"type":"Feature","properties":{"name":"Uxbridge Countryside Preserve","kind":"Trail","town":"Uxbridge"},"geometry":{"type":"LineString","coordinates":[[-79.1264,44.08829],[-79.12599,44.08789],[-79.12571,44.0877],[-79.12553,44.08732],[-79.12551,44.08711],[-79.12554,44.08698],[-79.12535,44.08675],[-79.12527,44.0866],[-79.12528,44.08649],[-79.12518,44.08641],[-79.12506,44.08637],[-79.12498,44.08623],[-79.12494,44.08599],[-79.12497,44.08556],[-79.12495,44.08526],[-79.12652,44.08492],[-79.1268,44.08489],[-79.12707,44.08498],[-79.12733,44.08513]]}},{"type":"Feature","properties":{"name":"Port Perry Waterfront Trail","kind":"Trail","town":"Scugog"},"geometry":{"type":"LineString","coordinates":[[-78.94491,44.10755],[-78.94538,44.10779],[-78.94743,44.10887]]}},{"type":"Feature","properties":{"name":"Port Perry Waterfront Trail","kind":"Trail","town":"Scugog"},"geometry":{"type":"LineString","coordinates":[[-78.94885,44.10962],[-78.94924,44.10986],[-78.94943,44.10999],[-78.9496,44.11008],[-78.94985,44.11023]]}},{"type":"Feature","properties":{"name":"Oak Ridges Trail","kind":"Trail","town":"Uxbridge"},"geometry":{"type":"LineString","coordinates":[[-79.23587,44.00879],[-79.23587,44.00876],[-79.2358,44.00853],[-79.2354,44.00774],[-79.23459,44.00596]]}},{"type":"Feature","properties":{"name":"Trans Canada Trail","kind":"Trail","town":"Uxbridge"},"geometry":{"type":"LineString","coordinates":[[-79.12409,44.10853],[-79.12436,44.10916]]}},{"type":"Feature","properties":{"name":"Canterbury Common Loop","kind":"Trail","town":"Scugog"},"geometry":{"type":"LineString","coordinates":[[-78.94609,44.11359],[-78.94607,44.11361],[-78.94592,44.11376],[-78.94579,44.11472],[-78.94583,44.11484],[-78.94591,44.11505],[-78.9464,44.11619],[-78.94644,44.11625],[-78.94647,44.1163],[-78.94648,44.11632],[-78.94651,44.11633],[-78.94655,44.11634],[-78.94662,44.11635],[-78.94671,44.11637],[-78.94679,44.1164],[-78.94683,44.11644],[-78.94688,44.1165],[-78.94694,44.11656],[-78.947,44.11662],[-78.94706,44.11669],[-78.9471,44.11673],[-78.94711,44.11677],[-78.94712,44.11682],[-78.94715,44.11689],[-78.94718,44.11696],[-78.9472,44.11703],[-78.94721,44.1171],[-78.9472,44.11718],[-78.94718,44.11724],[-78.94713,44.11733],[-78.94708,44.11739],[-78.94699,44.11748],[-78.94694,44.11755],[-78.94687,44.11762],[-78.9468,44.11769],[-78.94677,44.11775],[-78.94677,44.11782],[-78.94675,44.11788],[-78.94673,44.11793],[-78.94668,44.11802],[-78.94663,44.11809],[-78.94661,44.11815],[-78.94659,44.11822],[-78.94659,44.11831],[-78.94658,44.11838],[-78.94659,44.11847],[-78.94658,44.11854],[-78.94656,44.11861],[-78.94652,44.11869],[-78.94648,44.11878],[-78.94644,44.11884],[-78.9464,44.1189],[-78.94637,44.11896],[-78.94634,44.11903],[-78.94633,44.1191],[-78.94631,44.11918],[-78.94631,44.11923],[-78.94629,44.11928],[-78.94628,44.11934],[-78.94628,44.1194],[-78.94627,44.11945],[-78.94625,44.11952],[-78.94622,44.11959],[-78.94617,44.11968],[-78.94611,44.11979],[-78.94607,44.11986],[-78.94605,44.11993],[-78.94605,44.12],[-78.94604,44.12009],[-78.94603,44.12014],[-78.94601,44.1202],[-78.94597,44.12027],[-78.94593,44.12035],[-78.94589,44.1204],[-78.94585,44.12044],[-78.94583,44.1205],[-78.94581,44.12059],[-78.94579,44.12064],[-78.94578,44.12069],[-78.94576,44.12073],[-78.94574,44.12085],[-78.94572,44.12093],[-78.94571,44.12098],[-78.94569,44.12101],[-78.94564,44.12107],[-78.9456,44.12113],[-78.94555,44.12118],[-78.94552,44.12122],[-78.94548,44.12124],[-78.94543,44.12128],[-78.94539,44.12132],[-78.94536,44.12137],[-78.94533,44.1214],[-78.9453,44.12142],[-78.94525,44.12144],[-78.94517,44.12147],[-78.9451,44.1215],[-78.94503,44.12153],[-78.945,44.12156],[-78.94498,44.12161],[-78.94498,44.12166],[-78.94501,44.12172],[-78.94507,44.12178],[-78.94515,44.12182],[-78.94527,44.12185],[-78.94541,44.12188],[-78.94552,44.12191],[-78.94563,44.12192],[-78.94575,44.12193],[-78.9459,44.12194],[-78.94604,44.12194],[-78.94614,44.12195],[-78.94625,44.12196],[-78.94636,44.12198],[-78.94644,44.12199],[-78.94652,44.12202],[-78.94661,44.12205],[-78.94672,44.12207],[-78.94686,44.1221],[-78.94698,44.12213],[-78.94708,44.12216],[-78.94719,44.12219],[-78.94729,44.1222],[-78.94738,44.12219],[-78.94746,44.12218],[-78.94756,44.12215],[-78.94766,44.12212],[-78.94775,44.12209],[-78.94787,44.12207],[-78.94798,44.12207],[-78.94809,44.12206],[-78.9482,44.12204],[-78.94832,44.122],[-78.94843,44.12198],[-78.94854,44.12198],[-78.94864,44.12196],[-78.94876,44.12192],[-78.94888,44.12189],[-78.94897,44.12187],[-78.94907,44.12187],[-78.94917,44.12187],[-78.94932,44.12188],[-78.94944,44.12188],[-78.94957,44.12187],[-78.94974,44.12186],[-78.94994,44.12184],[-78.95009,44.12181],[-78.95029,44.12178],[-78.95052,44.12173],[-78.95068,44.12168],[-78.95081,44.12164],[-78.95086,44.12161],[-78.95093,44.12155],[-78.95103,44.12149],[-78.95113,44.12144],[-78.95123,44.12139],[-78.95135,44.12133],[-78.95147,44.12129],[-78.95156,44.12124],[-78.95162,44.12116],[-78.95165,44.12109],[-78.95168,44.121],[-78.95179,44.12094],[-78.952,44.12083],[-78.95226,44.1207],[-78.95257,44.12055],[-78.95283,44.1204],[-78.95303,44.12028],[-78.95325,44.12012]]}},{"type":"Feature","properties":{"name":"Wooden Sticks","kind":"Trail","town":"Uxbridge"},"geometry":{"type":"LineString","coordinates":[[-79.11885,44.09763],[-79.11898,44.09765],[-79.11929,44.09768],[-79.11963,44.09769],[-79.12011,44.09766],[-79.12068,44.09755],[-79.12137,44.09741],[-79.12188,44.0973],[-79.12219,44.09723],[-79.12312,44.09704],[-79.12533,44.09657]]}},{"type":"Feature","properties":{"name":"Uxbridge Countryside Preserve","kind":"Trail","town":"Uxbridge"},"geometry":{"type":"LineString","coordinates":[[-79.12732,44.08509],[-79.12738,44.08501],[-79.12754,44.08492],[-79.12795,44.08484],[-79.12807,44.08474],[-79.12829,44.08467],[-79.12854,44.08464]]}},{"type":"Feature","properties":{"name":"Trans Canada Trail","kind":"Trail","town":"Uxbridge"},"geometry":{"type":"LineString","coordinates":[[-79.0988,43.99894],[-79.09846,43.99899],[-79.0981,43.99908],[-79.09769,43.99918],[-79.09733,43.99925],[-79.09706,43.99931],[-79.09682,43.99935],[-79.0966,43.99938],[-79.09635,43.99945],[-79.09614,43.99951],[-79.09591,43.99957],[-79.09557,43.99965],[-79.0952,43.99973],[-79.09488,43.99979],[-79.09452,43.99987],[-79.09424,43.99994],[-79.09396,44.0],[-79.0937,44.00007],[-79.09347,44.00013],[-79.09337,44.00015],[-79.09304,44.00023],[-79.09276,44.0003],[-79.0925,44.00036],[-79.09249,44.00042],[-79.09248,44.00048],[-79.09248,44.0005],[-79.09247,44.0006],[-79.09244,44.00072],[-79.0924,44.00103],[-79.0924,44.00105],[-79.09238,44.0011],[-79.09234,44.00117],[-79.09231,44.00124],[-79.09224,44.00131],[-79.09217,44.00137],[-79.09211,44.00141],[-79.09201,44.00145],[-79.09191,44.00147],[-79.09178,44.00149],[-79.09164,44.00151],[-79.09163,44.00152],[-79.09152,44.00152],[-79.09138,44.00155],[-79.09123,44.00158],[-79.09111,44.00162],[-79.09101,44.00168],[-79.09098,44.00174],[-79.09097,44.0018],[-79.09097,44.00186],[-79.09098,44.00193],[-79.09098,44.00199],[-79.09096,44.00203],[-79.09094,44.00205],[-79.09078,44.00211],[-79.09055,44.00215],[-79.09035,44.00214],[-79.09019,44.00212],[-79.08999,44.00207],[-79.08981,44.00199],[-79.08964,44.00192],[-79.0895,44.00183],[-79.08927,44.0017],[-79.08907,44.00161],[-79.0889,44.00157],[-79.08873,44.00154],[-79.08872,44.00154],[-79.08871,44.00154],[-79.08849,44.00158],[-79.08824,44.00165],[-79.08807,44.00173],[-79.0879,44.0018],[-79.08775,44.00186],[-79.08745,44.00198],[-79.08732,44.00201],[-79.08722,44.00206],[-79.08716,44.0021],[-79.08707,44.00217],[-79.08695,44.00225],[-79.08677,44.00235],[-79.08641,44.00254],[-79.08634,44.0026],[-79.08621,44.0026],[-79.08606,44.00262],[-79.08594,44.00263],[-79.08581,44.00263],[-79.08569,44.00263],[-79.08561,44.00265],[-79.08556,44.00268],[-79.08556,44.00268],[-79.08553,44.00272],[-79.08552,44.00278],[-79.08554,44.00286],[-79.08558,44.00293],[-79.08564,44.003],[-79.08567,44.00306],[-79.08568,44.00313],[-79.08567,44.0032],[-79.08562,44.00326],[-79.08555,44.00332],[-79.08544,44.00336],[-79.08532,44.0034],[-79.08523,44.00344],[-79.08519,44.00348],[-79.0852,44.00353],[-79.08524,44.00359],[-79.0853,44.00365],[-79.08537,44.00373],[-79.08546,44.00383],[-79.08556,44.00392],[-79.0856,44.00402],[-79.08559,44.00411],[-79.08558,44.00419],[-79.08559,44.00428],[-79.08565,44.00437],[-79.08571,44.00445],[-79.08578,44.00453],[-79.08587,44.00461],[-79.08597,44.00471],[-79.08604,44.00482],[-79.0861,44.00493],[-79.08613,44.00503],[-79.08613,44.00504],[-79.08615,44.00504],[-79.08621,44.00507],[-79.08629,44.00511],[-79.08637,44.00517],[-79.08639,44.00519],[-79.08652,44.00529],[-79.08669,44.00544],[-79.0868,44.00556],[-79.08689,44.00569],[-79.08697,44.00581],[-79.08705,44.00592],[-79.08721,44.00609],[-79.08728,44.00616],[-79.08724,44.00618],[-79.08698,44.00627],[-79.08678,44.00635],[-79.08664,44.0064],[-79.08677,44.0065],[-79.08692,44.00659],[-79.08707,44.00669],[-79.0872,44.00676],[-79.08787,44.00768],[-79.08802,44.00782],[-79.08824,44.00801],[-79.08865,44.00823],[-79.08922,44.00844],[-79.08968,44.00859],[-79.08977,44.00857],[-79.09,44.00853],[-79.09011,44.0085],[-79.09017,44.0085],[-79.0902,44.00851],[-79.09027,44.00855],[-79.0906,44.00881],[-79.09096,44.00912],[-79.091,44.00915],[-79.09105,44.00917],[-79.09108,44.00918],[-79.09118,44.00918],[-79.09118,44.00918],[-79.09127,44.00916],[-79.09129,44.00916],[-79.09136,44.00913],[-79.09144,44.00925],[-79.09153,44.00938],[-79.09168,44.00962],[-79.09179,44.00991],[-79.09184,44.01],[-79.0919,44.01003],[-79.092,44.01004],[-79.09275,44.00988],[-79.09319,44.00982],[-79.09343,44.00979],[-79.09379,44.00975],[-79.0939,44.00975],[-79.09402,44.00974],[-79.09413,44.00971],[-79.09421,44.00966],[-79.09446,44.00957],[-79.09527,44.00934],[-79.09552,44.0093],[-79.09568,44.00929],[-79.09576,44.0093],[-79.09593,44.00958],[-79.09605,44.00974],[-79.09606,44.00975],[-79.09612,44.00976],[-79.09644,44.00972],[-79.09664,44.00994],[-79.09709,44.01041],[-79.09726,44.01058],[-79.0976,44.01095],[-79.09764,44.01094],[-79.09797,44.01088],[-79.0983,44.01083],[-79.09842,44.01081],[-79.09856,44.01078],[-79.09862,44.01089],[-79.09866,44.01095],[-79.09869,44.01102],[-79.09875,44.01111],[-79.09884,44.01121],[-79.0989,44.01135],[-79.09888,44.01136],[-79.09881,44.01139],[-79.09862,44.01143],[-79.0986,44.01144],[-79.09855,44.01147],[-79.09853,44.01149],[-79.09846,44.01155],[-79.09835,44.01163],[-79.09806,44.01184],[-79.09789,44.01196],[-79.09779,44.01204],[-79.09776,44.01207],[-79.09757,44.01215],[-79.09738,44.01237],[-79.09733,44.01251],[-79.09731,44.01267],[-79.09731,44.01283],[-79.09729,44.01298],[-79.09723,44.01321],[-79.09715,44.01335],[-79.09698,44.0135],[-79.09686,44.01358],[-79.09667,44.01367],[-79.09639,44.01378],[-79.09608,44.01389],[-79.09581,44.01397],[-79.09553,44.01404],[-79.09533,44.01408],[-79.0951,44.01412],[-79.09496,44.01413],[-79.09482,44.01412],[-79.09462,44.01411],[-79.09444,44.01411],[-79.09425,44.01413],[-79.09409,44.01415],[-79.09397,44.01417],[-79.09389,44.01419],[-79.09386,44.01419],[-79.09369,44.01423],[-79.09343,44.01429],[-79.09336,44.01442],[-79.09324,44.01455],[-79.09316,44.01464],[-79.09303,44.01488],[-79.09296,44.015],[-79.09293,44.01508],[-79.0929,44.0152],[-79.09284,44.01528],[-79.09272,44.01536],[-79.0926,44.01538],[-79.09246,44.01539],[-79.09239,44.01541],[-79.09236,44.01541],[-79.09228,44.01542],[-79.09221,44.01545],[-79.09213,44.01549],[-79.09211,44.01551],[-79.09207,44.01554],[-79.09205,44.01561],[-79.09208,44.01568],[-79.09215,44.01576],[-79.09224,44.01585],[-79.0923,44.01592],[-79.09234,44.01601],[-79.09233,44.0161],[-79.09227,44.01617],[-79.09222,44.01622],[-79.09212,44.01628],[-79.09208,44.01631],[-79.092,44.01636],[-79.09199,44.01637],[-79.09191,44.0164],[-79.09179,44.01648],[-79.09171,44.01654],[-79.09173,44.01668],[-79.09184,44.01681],[-79.09191,44.01692],[-79.092,44.01703],[-79.09208,44.01716],[-79.09215,44.01728],[-79.09222,44.01734],[-79.0923,44.0174],[-79.09241,44.01745],[-79.09253,44.01751],[-79.09265,44.01757],[-79.09267,44.01758],[-79.09277,44.01765],[-79.09288,44.01774],[-79.09296,44.01786],[-79.09304,44.01802],[-79.09313,44.0182],[-79.09319,44.01837],[-79.09325,44.0185],[-79.09331,44.0186],[-79.09338,44.01872],[-79.09341,44.01879],[-79.09342,44.01886],[-79.09339,44.01892],[-79.09337,44.01897],[-79.09335,44.01902],[-79.09338,44.01901],[-79.09343,44.019],[-79.09341,44.01902],[-79.09335,44.01908],[-79.09335,44.0191],[-79.09335,44.01917],[-79.09337,44.01925],[-79.09337,44.01926],[-79.09342,44.01939],[-79.09346,44.01952],[-79.09349,44.01967],[-79.09352,44.0198],[-79.09369,44.01975],[-79.0939,44.0197],[-79.09405,44.01966],[-79.09435,44.01959],[-79.09439,44.01957],[-79.09484,44.01946],[-79.09526,44.01937],[-79.09597,44.01918],[-79.09624,44.01911],[-79.09642,44.01906],[-79.09655,44.01906],[-79.09666,44.01906],[-79.0967,44.01907],[-79.09679,44.01911],[-79.09688,44.01918],[-79.09695,44.01924],[-79.09701,44.01932],[-79.09705,44.0194],[-79.09709,44.01947],[-79.09715,44.01969],[-79.0972,44.01978],[-79.09727,44.01986],[-79.09735,44.01992],[-79.09741,44.01999],[-79.09742,44.02],[-79.09748,44.02016],[-79.09751,44.02023],[-79.09755,44.02031],[-79.09763,44.02043],[-79.09763,44.02044],[-79.09773,44.02057],[-79.0978,44.02069],[-79.09787,44.02079],[-79.09812,44.02109],[-79.09819,44.02115],[-79.09827,44.02121],[-79.09836,44.02123],[-79.09859,44.02122],[-79.09878,44.0212],[-79.09893,44.02118],[-79.09907,44.02115],[-79.09913,44.02114],[-79.0993,44.02109],[-79.09935,44.02108],[-79.09952,44.02104],[-79.09959,44.02103],[-79.09965,44.0212],[-79.0997,44.02137],[-79.09974,44.02152],[-79.09979,44.02167],[-79.09979,44.02167],[-79.09983,44.02179],[-79.09983,44.02181],[-79.09988,44.02197],[-79.0999,44.02211],[-79.09988,44.0222],[-79.0998,44.02232],[-79.09979,44.02239],[-79.09985,44.02245],[-79.09995,44.02248]]}},{"type":"Feature","properties":{"name":"Trans Canada Trail","kind":"Trail","town":"Uxbridge"},"geometry":{"type":"LineString","coordinates":[[-79.09501,44.09595],[-79.08903,44.09722],[-79.08442,44.08645],[-79.08431,44.08641],[-79.08422,44.08631],[-79.08413,44.08605],[-79.08477,44.08562],[-79.08437,44.08526],[-79.08427,44.08514],[-79.08341,44.08532],[-79.08328,44.08504],[-79.08319,44.08464],[-79.08317,44.08441],[-79.08321,44.08419],[-79.0834,44.08386],[-79.08355,44.08375]]}},{"type":"Feature","properties":{"name":"Oak Ridges Trail","kind":"Trail","town":"Uxbridge"},"geometry":{"type":"LineString","coordinates":[[-79.18033,44.01291],[-79.18033,44.01291],[-79.18022,44.013],[-79.18019,44.01304],[-79.18019,44.01323],[-79.18017,44.01326],[-79.18011,44.01327],[-79.17994,44.01331],[-79.17993,44.01341],[-79.17995,44.01345],[-79.17996,44.0135]]}},{"type":"Feature","properties":{"name":"Trans Canada Trail","kind":"Trail","town":"Uxbridge"},"geometry":{"type":"LineString","coordinates":[[-79.09386,44.03841],[-79.09111,44.03905]]}},{"type":"Feature","properties":{"name":"Oak Ridges Trail","kind":"Trail","town":"Scugog"},"geometry":{"type":"LineString","coordinates":[[-79.05066,44.0355],[-79.05316,44.03501],[-79.05326,44.03498],[-79.05352,44.03491],[-79.05383,44.03484],[-79.05403,44.03476],[-79.05423,44.03476],[-79.05424,44.03476],[-79.05449,44.0347],[-79.05464,44.03469],[-79.05478,44.03463],[-79.05497,44.0346],[-79.05511,44.03454],[-79.05517,44.03448],[-79.05524,44.03442],[-79.05531,44.03443],[-79.0555,44.03446],[-79.05563,44.03444],[-79.05579,44.0344],[-79.05588,44.03432],[-79.05599,44.03428],[-79.056,44.03429],[-79.05617,44.03432],[-79.05624,44.0343],[-79.05635,44.03432],[-79.05638,44.03428],[-79.05653,44.03425],[-79.05664,44.03424],[-79.05679,44.03421],[-79.05692,44.03417],[-79.05703,44.03414],[-79.05709,44.03414],[-79.0571,44.03413],[-79.0571,44.03413],[-79.05728,44.03407],[-79.05733,44.03405],[-79.05733,44.03405],[-79.05741,44.03408],[-79.05743,44.03412],[-79.05743,44.03413],[-79.05747,44.03422],[-79.05749,44.03423],[-79.05763,44.03435],[-79.05766,44.03437],[-79.05773,44.03443],[-79.05781,44.03445],[-79.05786,44.03449],[-79.0579,44.03452],[-79.0579,44.03453],[-79.05797,44.03456],[-79.05805,44.03459],[-79.05837,44.03557],[-79.05861,44.03653],[-79.05993,44.0391],[-79.06109,44.0415],[-79.06214,44.04397],[-79.06289,44.04566],[-79.06304,44.04563]]}},{"type":"Feature","properties":{"name":"Oak Ridges Trail","kind":"Trail","town":"Scugog"},"geometry":{"type":"LineString","coordinates":[[-79.0474,44.03544],[-79.04741,44.03541],[-79.04744,44.03539],[-79.0476,44.03536],[-79.04764,44.03538],[-79.04766,44.03538],[-79.04794,44.03538],[-79.04818,44.03538],[-79.04828,44.0354],[-79.04835,44.0354],[-79.04852,44.03547],[-79.04858,44.03555],[-79.04858,44.03558],[-79.04861,44.03567],[-79.04865,44.03569],[-79.0487,44.03578],[-79.0487,44.0358],[-79.04872,44.03583],[-79.04883,44.0359],[-79.04887,44.03594],[-79.04888,44.03593],[-79.04891,44.03592],[-79.04912,44.03588],[-79.04934,44.03584],[-79.04944,44.03583],[-79.04966,44.03577],[-79.04978,44.03574],[-79.0498,44.03574],[-79.05001,44.03564],[-79.05014,44.03561],[-79.05066,44.0355]]}},{"type":"Feature","properties":{"name":"Oak Ridges Trail","kind":"Trail","town":"Uxbridge"},"geometry":{"type":"LineString","coordinates":[[-79.10545,44.03574],[-79.10142,44.03671],[-79.10119,44.03673],[-79.10106,44.03674],[-79.10096,44.03678],[-79.1009,44.0368],[-79.10075,44.03685],[-79.10055,44.03688],[-79.10043,44.0369],[-79.1004,44.03691],[-79.10034,44.03692],[-79.10031,44.03695],[-79.10026,44.03697],[-79.1,44.03703],[-79.0998,44.03706],[-79.09951,44.03714],[-79.09945,44.03716],[-79.09931,44.03718],[-79.09904,44.03723],[-79.09893,44.03727],[-79.09868,44.03731],[-79.09863,44.03732],[-79.09856,44.03735],[-79.09833,44.03739],[-79.09808,44.03742],[-79.09792,44.03744],[-79.09789,44.03745],[-79.09779,44.03747],[-79.09772,44.0375],[-79.09767,44.03751],[-79.09762,44.03753],[-79.09753,44.03757],[-79.09741,44.03758],[-79.0973,44.03761],[-79.09705,44.03771],[-79.09691,44.03774],[-79.09656,44.03781],[-79.09646,44.03782],[-79.09634,44.03784],[-79.09629,44.03785],[-79.09386,44.03841]]}},{"type":"Feature","properties":{"name":"Trans Canada Trail","kind":"Trail","town":"Uxbridge"},"geometry":{"type":"LineString","coordinates":[[-79.07673,44.06964],[-79.07684,44.06993],[-79.07737,44.07112],[-79.0785,44.07377],[-79.07964,44.0763],[-79.08115,44.07977]]}},{"type":"Feature","properties":{"name":"Oak Ridges Trail","kind":"Trail","town":"Uxbridge"},"geometry":{"type":"LineString","coordinates":[[-79.10744,44.03529],[-79.10734,44.03531],[-79.10724,44.03534],[-79.1072,44.03534],[-79.1066,44.03547],[-79.10657,44.03548],[-79.10648,44.0355],[-79.10638,44.0355],[-79.10625,44.03554],[-79.10623,44.03554],[-79.10619,44.03555],[-79.10616,44.03557],[-79.10605,44.03559],[-79.10575,44.03567],[-79.10545,44.03574]]}},{"type":"Feature","properties":{"name":"Oak Ridges Trail","kind":"Trail","town":"Uxbridge"},"geometry":{"type":"LineString","coordinates":[[-79.12991,44.03826],[-79.12977,44.03832],[-79.12786,44.03925],[-79.12785,44.0392],[-79.12789,44.03917],[-79.12792,44.03917],[-79.12792,44.03911],[-79.12782,44.03894],[-79.1276,44.03885],[-79.12727,44.03884],[-79.12709,44.03878]]}},{"type":"Feature","properties":{"name":"Oak Ridges Trail","kind":"Trail","town":"Uxbridge"},"geometry":{"type":"LineString","coordinates":[[-79.23455,44.00596],[-79.23453,44.00596],[-79.23446,44.00598],[-79.23429,44.00601],[-79.234,44.00608],[-79.23374,44.00617],[-79.23361,44.00618],[-79.231,44.00677],[-79.23069,44.00684],[-79.23041,44.00691],[-79.23039,44.00692],[-79.23037,44.00692],[-79.23032,44.00694],[-79.23008,44.007],[-79.22994,44.00705],[-79.22982,44.00707],[-79.22952,44.00715],[-79.22951,44.00715],[-79.22926,44.00724],[-79.229,44.00729],[-79.22745,44.00762],[-79.22718,44.00766],[-79.22632,44.00786],[-79.22632,44.00786],[-79.22632,44.00785],[-79.22613,44.00791],[-79.22469,44.00824],[-79.22437,44.00828],[-79.22431,44.00829],[-79.22416,44.00834],[-79.22399,44.00839],[-79.22368,44.00845],[-79.2235,44.00849],[-79.22338,44.00853],[-79.22306,44.00861],[-79.22289,44.00865],[-79.22266,44.0087],[-79.22021,44.00927],[-79.2201,44.00929],[-79.21895,44.00953],[-79.21876,44.00958],[-79.21862,44.0096],[-79.21851,44.00962],[-79.2181,44.00973],[-79.21797,44.00976],[-79.21787,44.00979],[-79.21514,44.01039],[-79.21507,44.01042],[-79.21471,44.01052],[-79.21437,44.01059],[-79.21375,44.01074],[-79.21355,44.0108],[-79.21324,44.01087],[-79.21312,44.0109],[-79.21261,44.011],[-79.21218,44.0111],[-79.21204,44.01112],[-79.21192,44.01115]]}},{"type":"Feature","properties":{"name":"Oak Ridges Trail","kind":"Trail","town":"Uxbridge"},"geometry":{"type":"LineString","coordinates":[[-79.16601,44.02149],[-79.16601,44.02162],[-79.166,44.02166],[-79.166,44.02167],[-79.16583,44.02173],[-79.16574,44.02175],[-79.16544,44.02182],[-79.16518,44.02189],[-79.165,44.02192],[-79.165,44.02192],[-79.16499,44.02192],[-79.16471,44.02199],[-79.16447,44.02207],[-79.16431,44.02214],[-79.16405,44.02221],[-79.16398,44.0222],[-79.16395,44.02222]]}},{"type":"Feature","properties":{"name":"Oak Ridges Trail","kind":"Trail","town":"Uxbridge"},"geometry":{"type":"LineString","coordinates":[[-79.11951,44.03678],[-79.11947,44.03679],[-79.11927,44.03685],[-79.11917,44.03689],[-79.11895,44.03696],[-79.11867,44.03701],[-79.11854,44.03701],[-79.11845,44.03705],[-79.11834,44.03704],[-79.11833,44.03704],[-79.11647,44.03753],[-79.11647,44.03753],[-79.11632,44.03759],[-79.11621,44.03764],[-79.11619,44.03766],[-79.11616,44.03783],[-79.11618,44.03791],[-79.11619,44.03793]]}},{"type":"Feature","properties":{"name":"Trans Canada Trail","kind":"Trail","town":"Uxbridge"},"geometry":{"type":"LineString","coordinates":[[-79.08262,44.08344],[-79.08262,44.08316],[-79.08249,44.08297],[-79.08246,44.08274],[-79.08243,44.0826],[-79.0823,44.08239],[-79.08218,44.08217],[-79.08203,44.08198],[-79.082,44.08181],[-79.08199,44.08178]]}},{"type":"Feature","properties":{"name":"Trans Canada Trail","kind":"Trail","town":"Uxbridge"},"geometry":{"type":"LineString","coordinates":[[-79.12436,44.10916],[-79.12471,44.11001],[-79.12467,44.11012]]}},{"type":"Feature","properties":{"name":"Trans Canada Trail","kind":"Trail","town":"Uxbridge"},"geometry":{"type":"LineString","coordinates":[[-79.12393,44.10784],[-79.1235,44.10683]]}},{"type":"Feature","properties":{"name":"Trans Canada Trail","kind":"Trail","town":"Uxbridge"},"geometry":{"type":"LineString","coordinates":[[-79.09386,44.03841],[-79.09386,44.03841],[-79.09385,44.03836],[-79.09382,44.0382],[-79.09378,44.03807],[-79.09379,44.03805],[-79.09379,44.03804],[-79.09381,44.03802],[-79.09387,44.038],[-79.09395,44.03797],[-79.09417,44.03791],[-79.09433,44.03786],[-79.09449,44.0378],[-79.09459,44.03775],[-79.09483,44.03759],[-79.09492,44.03753],[-79.09499,44.03748],[-79.09518,44.03738],[-79.09537,44.03731],[-79.09602,44.03706],[-79.09605,44.03704],[-79.09637,44.03687],[-79.09664,44.03674],[-79.09666,44.03674],[-79.09668,44.03673],[-79.09688,44.03666],[-79.09698,44.03663],[-79.09707,44.03665],[-79.09714,44.03666],[-79.09722,44.03669],[-79.09735,44.03674],[-79.09757,44.0368],[-79.09777,44.03693],[-79.09803,44.03697],[-79.09826,44.03695],[-79.09837,44.03693],[-79.0984,44.03693],[-79.09843,44.03693],[-79.09853,44.0369],[-79.09885,44.03686],[-79.09906,44.03679],[-79.09908,44.03679],[-79.09927,44.03669],[-79.09929,44.03668],[-79.09958,44.03651],[-79.09968,44.03648],[-79.09992,44.03638],[-79.10019,44.03623],[-79.10035,44.03611],[-79.10038,44.03608],[-79.10048,44.03596],[-79.1007,44.03582],[-79.10088,44.03579],[-79.10111,44.03574],[-79.10129,44.03568],[-79.10153,44.03554],[-79.1017,44.03548],[-79.10177,44.03545],[-79.10199,44.03538],[-79.1022,44.03524],[-79.10222,44.03521],[-79.10282,44.03469],[-79.10303,44.03454],[-79.10306,44.03446],[-79.10306,44.03445],[-79.10307,44.03438]]}},{"type":"Feature","properties":{"name":"Trans Canada Trail","kind":"Trail","town":"Uxbridge"},"geometry":{"type":"LineString","coordinates":[[-79.10115,44.03193],[-79.1012,44.03219],[-79.10141,44.03231],[-79.10148,44.03243],[-79.10149,44.03249],[-79.10153,44.03269],[-79.10163,44.03285],[-79.10186,44.03282],[-79.10211,44.03275],[-79.10232,44.0327],[-79.1024,44.03269],[-79.1025,44.0327],[-79.1025,44.03271],[-79.10251,44.03281],[-79.10251,44.03282],[-79.10251,44.03288],[-79.10249,44.03299],[-79.10286,44.03402],[-79.10298,44.0342],[-79.10307,44.03438],[-79.10307,44.03438]]}},{"type":"Feature","properties":{"name":"Trans Canada Trail","kind":"Trail","town":"Uxbridge"},"geometry":{"type":"LineString","coordinates":[[-79.08262,44.08344],[-79.08325,44.08361],[-79.08355,44.08375]]}},{"type":"Feature","properties":{"name":"Trans Canada Trail","kind":"Trail","town":"Uxbridge"},"geometry":{"type":"LineString","coordinates":[[-79.08127,44.08003],[-79.08199,44.08178]]}},{"type":"Feature","properties":{"name":"Oak Ridges Trail","kind":"Trail","town":"Uxbridge"},"geometry":{"type":"LineString","coordinates":[[-79.16395,44.02222],[-79.16916,44.03457],[-79.16914,44.03457],[-79.16914,44.03457],[-79.16913,44.03457],[-79.16902,44.03462],[-79.16879,44.0347],[-79.16869,44.03472],[-79.16724,44.03504],[-79.16707,44.03501],[-79.16697,44.03501],[-79.16683,44.03503],[-79.16541,44.03535],[-79.16505,44.03543],[-79.16488,44.03545],[-79.16302,44.03589],[-79.16267,44.03599],[-79.16231,44.03608],[-79.16223,44.03612],[-79.16223,44.03612],[-79.16223,44.03612],[-79.16223,44.03612],[-79.16189,44.03624],[-79.1618,44.03626],[-79.16152,44.03631],[-79.16124,44.03632],[-79.16122,44.03632],[-79.16098,44.03637],[-79.16085,44.03639],[-79.16079,44.0364],[-79.16077,44.03642],[-79.16072,44.03651],[-79.16072,44.03653],[-79.16071,44.03658],[-79.16073,44.03675],[-79.16076,44.03687],[-79.16068,44.03734],[-79.16068,44.03731],[-79.16063,44.03743],[-79.16055,44.0375],[-79.16045,44.03756],[-79.16036,44.03759],[-79.1602,44.03758],[-79.15981,44.03761],[-79.15977,44.03762],[-79.15947,44.03779],[-79.15932,44.03794],[-79.15926,44.03802],[-79.15923,44.03812],[-79.15908,44.03826],[-79.15899,44.03832],[-79.15883,44.03844],[-79.1588,44.03846],[-79.1588,44.03846],[-79.15867,44.03851],[-79.1585,44.0386],[-79.15832,44.03872],[-79.15818,44.0388],[-79.15798,44.0389],[-79.15797,44.0389],[-79.15789,44.03895],[-79.15786,44.03903],[-79.15782,44.03905],[-79.15759,44.03917],[-79.15744,44.03917],[-79.15735,44.0392],[-79.15705,44.0393],[-79.15695,44.03932],[-79.15679,44.03936],[-79.1566,44.0394],[-79.15646,44.03943],[-79.15626,44.03947],[-79.15612,44.03949],[-79.15593,44.03955],[-79.15566,44.0396],[-79.15559,44.03962],[-79.15545,44.03967],[-79.1538,44.04005],[-79.15379,44.04005],[-79.15376,44.04007],[-79.15362,44.04009],[-79.15331,44.04017],[-79.15294,44.04024],[-79.15285,44.04027],[-79.15285,44.04027],[-79.15285,44.04027],[-79.15186,44.04048],[-79.15162,44.04052],[-79.15144,44.04056],[-79.15134,44.04059],[-79.15111,44.04065],[-79.15088,44.04072],[-79.14963,44.04098],[-79.14953,44.041],[-79.1494,44.04103],[-79.14798,44.04137],[-79.14783,44.04141],[-79.14779,44.04142],[-79.14752,44.04146],[-79.14752,44.04146],[-79.14733,44.04149],[-79.14712,44.04155],[-79.1464,44.04176],[-79.14614,44.04185],[-79.14612,44.04186],[-79.14618,44.04203],[-79.14624,44.0421],[-79.14636,44.04238],[-79.14643,44.04249],[-79.14647,44.04258],[-79.14642,44.04263],[-79.14636,44.04264],[-79.14626,44.04266],[-79.14618,44.04271],[-79.14614,44.04269],[-79.14605,44.04269],[-79.14595,44.04272],[-79.14594,44.04271],[-79.14592,44.04267],[-79.14584,44.0425],[-79.14574,44.04224],[-79.14566,44.04208],[-79.14555,44.04201],[-79.14548,44.04188],[-79.14548,44.04188],[-79.14548,44.04188],[-79.14547,44.04184],[-79.14539,44.04165],[-79.14527,44.04139],[-79.14524,44.04134],[-79.14409,44.03905],[-79.14408,44.039],[-79.14397,44.03873],[-79.14386,44.03843],[-79.14385,44.03841],[-79.14384,44.0384],[-79.14383,44.03837],[-79.14369,44.03806],[-79.14365,44.03798],[-79.14341,44.03739],[-79.1433,44.03713],[-79.14325,44.03702],[-79.14324,44.03702],[-79.14322,44.037],[-79.14322,44.037],[-79.14322,44.037],[-79.14322,44.037]]}},{"type":"Feature","properties":{"name":"Oak Ridges Trail","kind":"Trail","town":"Uxbridge"},"geometry":{"type":"LineString","coordinates":[[-79.18027,44.01446],[-79.18022,44.01448],[-79.18007,44.01453],[-79.18003,44.01454],[-79.18002,44.01454],[-79.17997,44.01454],[-79.1797,44.01457],[-79.17961,44.01458],[-79.17923,44.01467],[-79.17904,44.01474],[-79.17902,44.01475],[-79.17877,44.0148],[-79.17872,44.01479],[-79.17871,44.01481],[-79.17862,44.01491],[-79.17853,44.01501],[-79.17851,44.01503],[-79.17842,44.01507],[-79.17836,44.01507],[-79.17814,44.01501],[-79.17811,44.01501],[-79.17796,44.01501],[-79.17793,44.01501],[-79.17791,44.01501],[-79.17789,44.01501],[-79.17783,44.01502],[-79.17781,44.01502],[-79.17775,44.01502],[-79.17753,44.01505],[-79.17748,44.01506],[-79.1774,44.01508],[-79.17715,44.01513],[-79.17686,44.01524],[-79.17682,44.01525],[-79.17658,44.01535],[-79.17628,44.01547],[-79.17619,44.0155],[-79.1761,44.01553],[-79.17607,44.01557],[-79.17591,44.01582],[-79.17578,44.01601],[-79.17561,44.01608],[-79.17548,44.01613],[-79.17538,44.01614],[-79.17526,44.01613],[-79.17518,44.01612],[-79.17501,44.01612],[-79.17499,44.01611],[-79.17474,44.01606],[-79.17458,44.01603],[-79.17445,44.01608],[-79.1743,44.01612],[-79.17413,44.01618],[-79.17407,44.0162],[-79.17382,44.01625],[-79.1736,44.01631],[-79.17341,44.01637],[-79.17329,44.01639],[-79.17319,44.01641],[-79.17282,44.01643],[-79.17278,44.01643],[-79.17261,44.01645],[-79.1721,44.0165],[-79.1718,44.01677],[-79.1717,44.0169],[-79.17161,44.01704],[-79.1716,44.01707],[-79.17158,44.01709],[-79.17152,44.01718],[-79.17145,44.0173],[-79.17145,44.01744],[-79.17144,44.01763],[-79.17143,44.01764],[-79.17142,44.01765],[-79.1714,44.01766],[-79.17121,44.01773],[-79.17091,44.01781],[-79.17082,44.01785],[-79.17079,44.01786],[-79.17067,44.01797],[-79.1706,44.01801],[-79.17049,44.01804],[-79.17023,44.01809],[-79.17007,44.0181],[-79.16984,44.01814],[-79.16976,44.01817],[-79.16946,44.01829],[-79.16943,44.0183],[-79.16941,44.0183],[-79.1694,44.0183],[-79.16926,44.01835],[-79.16909,44.01861],[-79.16903,44.01873],[-79.169,44.01876],[-79.16882,44.01879],[-79.16871,44.01883],[-79.16865,44.0189],[-79.16864,44.01897],[-79.16865,44.01917],[-79.16878,44.0193],[-79.16882,44.01932],[-79.16883,44.01933],[-79.169,44.01942],[-79.1691,44.01945],[-79.16913,44.01946],[-79.16919,44.01947],[-79.16925,44.0195],[-79.1693,44.01966],[-79.16914,44.01977],[-79.16899,44.0199],[-79.1688,44.02006],[-79.1687,44.02018],[-79.16868,44.02019],[-79.16861,44.02026],[-79.16845,44.0204],[-79.16844,44.0204],[-79.1682,44.02047],[-79.16792,44.02053],[-79.1678,44.02056],[-79.16775,44.02057],[-79.1675,44.02062],[-79.16727,44.02067],[-79.16721,44.02066],[-79.16691,44.0207],[-79.16687,44.0207],[-79.16666,44.02056],[-79.16656,44.02044],[-79.16654,44.02041],[-79.16654,44.0204],[-79.16653,44.02038],[-79.16648,44.02029],[-79.16647,44.02027],[-79.16637,44.02027],[-79.16625,44.02032],[-79.1662,44.02028],[-79.16562,44.02006],[-79.16551,44.02002],[-79.16548,44.02001],[-79.16546,44.02006],[-79.16547,44.02012],[-79.16547,44.02014],[-79.16546,44.02021],[-79.16549,44.0203],[-79.16556,44.02049],[-79.1656,44.02063],[-79.16569,44.02083],[-79.16575,44.02093],[-79.16588,44.02117],[-79.16592,44.02133],[-79.16596,44.02141],[-79.16601,44.02147],[-79.16601,44.02149]]}},{"type":"Feature","properties":{"name":"Trans Canada Trail","kind":"Trail","town":"Uxbridge"},"geometry":{"type":"LineString","coordinates":[[-79.12239,44.10685],[-79.12221,44.1069]]}}]}