{"type":"FeatureCollection","features":[{"type":"Feature","properties":{"name":"Head Memorial Church","kind":"Place of worship","address":"16230 Island Road","town":"Port Perry","phone":"905-985-8698 ext. 103","website":"www.scugogshoresmuseum.com/village11a.php"},"geometry":{"type":"Point","coordinates":[-78.92047,44.11334]}},{"type":"Feature","properties":{"name":"Blackstock United Church","kind":"Place of worship","address":"3483 Church St, PO Box 250","town":"Blackstock","phone":"905-986-4235","website":"blackstock-nestletonunitedchurch.com"},"geometry":{"type":"Point","coordinates":[-78.81877,44.10743]}},{"type":"Feature","properties":{"name":"Uxbridge Quaker Meeting House","kind":"Place of worship","address":"6800 Concession Road 6","town":"Uxbridge","phone":"905-852-3476","website":"www.uxbridgequakermeetinghouse.com"},"geometry":{"type":"Point","coordinates":[-79.14471,44.09974]}},{"type":"Feature","properties":{"name":"Leaksdale St Pauls Presbyterian Church","kind":"Place of worship","address":"12251 Concession 7 (Regional Rd 1),  PO Box 104","town":"Leaskdale","phone":"905-852-5921","website":"stpaulsleaskdale.com"},"geometry":{"type":"Point","coordinates":[-79.16042,44.20779]}},{"type":"Feature","properties":{"name":"St Pauls Anglican Church","kind":"Place of worship","address":"59 Toronto St S, PO Box 673","town":"Uxbridge","phone":"905-852-7016","website":"www.stpauls-uxbridge.ca"},"geometry":{"type":"Point","coordinates":[-79.12325,44.10625]}},{"type":"Feature","properties":{"name":"Breadalbane Presbyterian Church","kind":"Place of worship","address":"555 Regional Rd 21, RR4","town":"Port Perry","phone":"905-985-3881","website":"stjohnsportperry.com/breadalbane"},"geometry":{"type":"Point","coordinates":[-79.02934,44.06789]}},{"type":"Feature","properties":{"name":"St James Anglican Church","kind":"Place of worship","address":"S13020 Lake Ridge Rd","town":"Sunderland"},"geometry":{"type":"Point","coordinates":[-79.1243,44.22395]}},{"type":"Feature","properties":{"name":"Caesarea Christian Fellowship","kind":"Place of worship","address":"3625 Regional Rd 57","town":"Caesarea","phone":"905-986-5683"},"geometry":{"type":"Point","coordinates":[-78.83022,44.15883]}},{"type":"Feature","properties":{"name":"Kingdom Hall of Jehovahs Witnesses","kind":"Place of worship","address":"4601 Concession 4","town":"Goodwood","phone":"905-852-7906","website":"www.jw.org"},"geometry":{"type":"Point","coordinates":[-79.17483,44.04939]}},{"type":"Feature","properties":{"name":"Uxbridge Baptist Church","kind":"Place of worship","address":"231 Brock St W","town":"Uxbridge","phone":"905-852-3662","website":"uxbridgebaptist.com"},"geometry":{"type":"Point","coordinates":[-79.13059,44.10741]}},{"type":"Feature","properties":{"name":"Port Perry United Church","kind":"Place of worship","address":"294 Queen St","town":"Port Perry","phone":"905-985-2801","website":"www.portperryunited.com"},"geometry":{"type":"Point","coordinates":[-78.94681,44.10342]}},{"type":"Feature","properties":{"name":"St Johns Presbyterian Church","kind":"Place of worship","address":"319 Queen St, PO Box 1135","town":"Port Perry","phone":"905-985-3881","website":"www.stjohnsportperry.com"},"geometry":{"type":"Point","coordinates":[-78.94804,44.10352]}},{"type":"Feature","properties":{"name":"Fair Havens Community Church","kind":"Place of worship","address":"B2355 Regional Highway 48, RR3","town":"Beaverton","phone":"705-426-7251","website":"www.fairhavenscommunitychurch.ca"},"geometry":{"type":"Point","coordinates":[-79.08443,44.51342]}},{"type":"Feature","properties":{"name":"Zephyr United Church","kind":"Place of worship","address":"12990 Concession 3 (Regional Rd 39), PO Box 67","town":"Zephyr","phone":"416-689-2414","website":"www.sandfordzephyruc.com"},"geometry":{"type":"Point","coordinates":[-79.26533,44.20043]}},{"type":"Feature","properties":{"name":"Emmanuel Community Church","kind":"Place of worship","address":"1680 Reach St, PO Box 634","town":"Port Perry","phone":"905-985-4441","website":"www.emmanuelcc.ca"},"geometry":{"type":"Point","coordinates":[-78.95902,44.11002]}},{"type":"Feature","properties":{"name":"Hope Christian Reformed Church","kind":"Place of worship","address":"14480 Old Simcoe Rd, PO Box 1169","town":"Port Perry","phone":"905-985-9307","website":"www.crcna.org"},"geometry":{"type":"Point","coordinates":[-78.95582,44.09065]}},{"type":"Feature","properties":{"name":"St James United Church, Vroomanton","kind":"Place of worship","address":"S16205 Sideroad 17a, RR2","town":"Sunderland","phone":"705-357-3056","website":"www.united-church.ca"},"geometry":{"type":"Point","coordinates":[-79.11791,44.26574]}},{"type":"Feature","properties":{"name":"Family Worship Centre","kind":"Place of worship","address":"15 Medd Rd, PO Box 242","town":"Uxbridge","phone":"905-852-7054","website":"uxbridgefamilyworship.ca"},"geometry":{"type":"Point","coordinates":[-79.07856,44.08458]}},{"type":"Feature","properties":{"name":"Greenbank United Church","kind":"Place of worship","address":"19991 Hwy 12","town":"Greenbank","phone":"905-985-7766","website":"www.greenbankchurch.com"},"geometry":{"type":"Point","coordinates":[-79.01453,44.15215]}},{"type":"Feature","properties":{"name":"St Andrews United Church","kind":"Place of worship","address":"523 Simcoe St, PO Box 359","town":"Beaverton","phone":"705-426-7101","website":"www.standrewsunitedchurch.net"},"geometry":{"type":"Point","coordinates":[-79.14849,44.42764]}},{"type":"Feature","properties":{"name":"Wesleyan Methodist (Pioneer) Church 1873","kind":"Place of worship","address":"1560 Concession 7","town":"Glen Major"},"geometry":{"type":"Point","coordinates":[-79.07456,44.0155]}},{"type":"Feature","properties":{"name":"Beacan Presbyterian Church","kind":"Place of worship","address":"413 Simcoe St, PO Box 741","town":"Beaverton","phone":"705-426-9475","website":"www.beacan.org"},"geometry":{"type":"Point","coordinates":[-79.15234,44.42889]}},{"type":"Feature","properties":{"name":"Epsom United Church","kind":"Place of worship","address":"16370 Marsh Hill Rd","town":"Port Perry","phone":"905-640-1781","website":"www.epsom-uticaunitedchurch.com"},"geometry":{"type":"Point","coordinates":[-79.03832,44.09726]}},{"type":"Feature","properties":{"name":"Cannington Baptist Church","kind":"Place of worship","address":"60 Cameron St W, PO Box 345","town":"Cannington","phone":"705-432-2479","website":"www.canningtonbaptist.com"},"geometry":{"type":"Point","coordinates":[-79.04093,44.34948]}},{"type":"Feature","properties":{"name":"Goodwood Gospel Hall","kind":"Place of worship","address":"304 Highway 47, PO Box 35","town":"Goodwood","phone":"905-640-3237","website":"www.goodwood.gospelhall.com"},"geometry":{"type":"Point","coordinates":[-79.19567,44.03772]}},{"type":"Feature","properties":{"name":"Grace Baptist Church","kind":"Place of worship","address":"20 Church St S","town":"Sunderland","phone":"705-357-1709","website":"www.gracebaptistsunderland.com"},"geometry":{"type":"Point","coordinates":[-79.06775,44.26125]}},{"type":"Feature","properties":{"name":"Trinity United Church","kind":"Place of worship","address":"50 Laidlaw St N, PO Box 189","town":"Cannington","phone":"705-432-2721","website":"trinitycannington.ca"},"geometry":{"type":"Point","coordinates":[-79.03969,44.35173]}},{"type":"Feature","properties":{"name":"Sacred Heart Roman Catholic Church","kind":"Place of worship","address":"70 Toronto St N, PO Box 100","town":"Uxbridge","phone":"905-852-6944"},"geometry":{"type":"Point","coordinates":[-79.12259,44.11161]}},{"type":"Feature","properties":{"name":"United Pentecostal Church Victory Tabernacle","kind":"Place of worship","address":"421 Main St, PO Box 519","town":"Beaverton","phone":"705-426-9208","website":"www.victorytab.ca"},"geometry":{"type":"Point","coordinates":[-79.15087,44.43157]}},{"type":"Feature","properties":{"name":"Living Water Community Church","kind":"Place of worship","address":"81 Reach St, PO Box 341","town":"Uxbridge","phone":"905-852-2059","website":"www.livingwateruxbridge.ca"},"geometry":{"type":"Point","coordinates":[-79.11483,44.10542]}},{"type":"Feature","properties":{"name":"St Josephs Catholic Church","kind":"Place of worship","address":"573 Simcoe St, PO Box 179","town":"Beaverton","phone":"705-426-7424","website":"www.stjosephsbeaverton.ca"},"geometry":{"type":"Point","coordinates":[-79.14623,44.42722]}},{"type":"Feature","properties":{"name":"Wick Presbyterian Church","kind":"Place of worship","address":"S1295 Brock Concession Rd 2, RR4","town":"Sunderland","phone":"705-432-3131","website":"presbyterian.ca"},"geometry":{"type":"Point","coordinates":[-79.03566,44.21681]}},{"type":"Feature","properties":{"name":"Trinity United Church","kind":"Place of worship","address":"20 First Av","town":"Uxbridge","phone":"905-852-6213","website":"trinitycannington.ca"},"geometry":{"type":"Point","coordinates":[-79.11966,44.11029]}},{"type":"Feature","properties":{"name":"Udora United Church","kind":"Place of worship","address":"14800 Concession 7 (Regional Rd 1)","town":"Udora","phone":"705-437-1407","website":"www.united-church.ca"},"geometry":{"type":"Point","coordinates":[-79.18288,44.25429]}},{"type":"Feature","properties":{"name":"St Andrews United Church","kind":"Place of worship","address":"10 Church St N, PO Box 158","town":"Sunderland","phone":"705-357-3056","website":"www.united-church.ca"},"geometry":{"type":"Point","coordinates":[-79.06845,44.26307]}},{"type":"Feature","properties":{"name":"Pine Grove United Church","kind":"Place of worship","address":"4089 Concession 7","town":"Uxbridge"},"geometry":{"type":"Point","coordinates":[-79.09814,44.06054]}},{"type":"Feature","properties":{"name":"Utica United Church","kind":"Place of worship","address":"14251 Marsh Hill Rd, RR4","town":"Port Perry","phone":"905-640-1781","website":"www.epsom-uticaunitedchurch.com"},"geometry":{"type":"Point","coordinates":[-79.02598,44.07016]}},{"type":"Feature","properties":{"name":"Immaculate Conception Church","kind":"Place of worship","address":"1710 Scugog St","town":"Port Perry","phone":"905-985-7071","website":"immaculateconceptionpo.archtoronto.org"},"geometry":{"type":"Point","coordinates":[-78.95122,44.09816]}},{"type":"Feature","properties":{"name":"St Pauls Anglican Church","kind":"Place of worship","address":"383 Osborne St, PO Box 406","town":"Beaverton","phone":"705-426-5972","website":"www.facebook.com/stpaulsbeaverton"},"geometry":{"type":"Point","coordinates":[-79.15248,44.42705]}},{"type":"Feature","properties":{"name":"Zephyr Missionary Church","kind":"Place of worship","address":"14209 Concession 3 (Regional Rd 39), RR1","town":"Zephyr","phone":"905-473-3696","website":"www.facebook.com/pages/Zephyr-Missionary-Church/167567593269362"},"geometry":{"type":"Point","coordinates":[-79.27379,44.2222]}},{"type":"Feature","properties":{"name":"Goodwood United Church","kind":"Place of worship","address":"3999 Front St, PO Box 123","town":"Goodwood","phone":"905-640-1781","website":"www.united-church.ca"},"geometry":{"type":"Point","coordinates":[-79.19447,44.03414]}},{"type":"Feature","properties":{"name":"Seagrave United Church","kind":"Place of worship","address":"15 Coryell St","town":"Seagrave","phone":"905-985-2429","website":"seagrave-church.com"},"geometry":{"type":"Point","coordinates":[-78.95179,44.20042]}},{"type":"Feature","properties":{"name":"Uxbridge Free Methodist Church","kind":"Place of worship","address":"81 Reach St","town":"Uxbridge","phone":"905-852-3162","website":"uxbridgefmc.wordpress.com"},"geometry":{"type":"Point","coordinates":[-79.11471,44.10543]}},{"type":"Feature","properties":{"name":"The Old Stone Church","kind":"Place of worship","address":"B1490 Regional Rd 15","town":"Beaverton"},"geometry":{"type":"Point","coordinates":[-79.11585,44.42635]}},{"type":"Feature","properties":{"name":"St John's Anglican Church","kind":"Place of worship","address":"3505 Church St, PO Box 194","town":"Blackstock","phone":"905-986-0557","website":"stjohnsblackstock.com"},"geometry":{"type":"Point","coordinates":[-78.81753,44.10772]}},{"type":"Feature","properties":{"name":"Prince Albert United Church","kind":"Place of worship","address":"23 Jeffrey St","town":"Prince Albert","phone":"905-985-2801","website":"www.portperryunited.com"},"geometry":{"type":"Point","coordinates":[-78.95335,44.08672]}},{"type":"Feature","properties":{"name":"New Song Angilcan Church","kind":"Place of worship","address":"14460 Simcoe St","town":"Port Perry","phone":"905-982-2064","website":"www.newsongportperry.ca"},"geometry":{"type":"Point","coordinates":[-78.94324,44.09363]}},{"type":"Feature","properties":{"name":"St Andrews Chalmers Presbyterian Church","kind":"Place of worship","address":"40-B Toronto St S","town":"Uxbridge","phone":"905-852-6262","website":"standrewschalmers.ca"},"geometry":{"type":"Point","coordinates":[-79.12341,44.10729]}},{"type":"Feature","properties":{"name":"Siloam United Church","kind":"Place of worship","address":"285 Regional Rd 8","town":"Uxbridge"},"geometry":{"type":"Point","coordinates":[-79.21929,44.08696]}},{"type":"Feature","properties":{"name":"Victory Christian Centre","kind":"Place of worship","address":"593 Alma St","town":"Port Perry","phone":"905-985-1346","website":"www.victorychristiancentre.net"},"geometry":{"type":"Point","coordinates":[-78.95697,44.09645]}},{"type":"Feature","properties":{"name":"Sandford United Church","kind":"Place of worship","address":"405 Sandford Rd","town":"Uxbridge","phone":"416-689-2414","website":"www.sandfordzephyruc.com"},"geometry":{"type":"Point","coordinates":[-79.21015,44.13512]}},{"type":"Feature","properties":{"name":"Anglican Church of the Ascension","kind":"Place of worship","address":"266 North St","town":"Port Perry","phone":"905-985-7278","website":"www.ascensionportperry.com"},"geometry":{"type":"Point","coordinates":[-78.94639,44.10472]}},{"type":"Feature","properties":{"name":"Community Pentecostal Church","kind":"Place of worship","address":"B1355 Thorah Concession Rd 1, RR1","town":"Beaverton","phone":"705-426-5673","website":"www.facebook.com/pages/Community-Pentecostal-Church-Beaverton/199923680207498"},"geometry":{"type":"Point","coordinates":[-79.1033,44.37881]}},{"type":"Feature","properties":{"name":"Scugog Island United Church","kind":"Place of worship","address":"19100 Island Rd","town":"Port Perry","phone":"905-985-4094","website":"www.facebook.com/pages/Scugog-Island-United-Church/1426237130939462"},"geometry":{"type":"Point","coordinates":[-78.89938,44.15638]}},{"type":"Feature","properties":{"name":"Port Perry Baptist Church","kind":"Place of worship","address":"2210 Hwy 7A, PO Box 25","town":"Port Perry","phone":"905-985-8681","website":"www.portperrybaptist.ca"},"geometry":{"type":"Point","coordinates":[-78.91547,44.10508]}},{"type":"Feature","properties":{"name":"Nestleton United Church","kind":"Place of worship","address":"3991 Proutt Rd","town":"Nestleton","phone":"905-986-4235","website":"blackstock-nestletonunitedchurch.com"},"geometry":{"type":"Point","coordinates":[-78.79871,44.15273]}},{"type":"Feature","properties":{"name":"Goodwood Baptist Church","kind":"Place of worship","address":"283 Highway 47","town":"Goodwood","phone":"905-640-3111","website":"goodwoodbaptistchurch.com"},"geometry":{"type":"Point","coordinates":[-79.19953,44.03502]}},{"type":"Feature","properties":{"name":"Pinedale United Church","kind":"Place of worship","address":"S12725 Sideroad 18","town":"Sunderland","phone":"905-985-7787"},"geometry":{"type":"Point","coordinates":[-79.00869,44.24585]}}]}